{"type":"FeatureCollection","features":[{"type":"Feature","properties":{"fips":"17001"},"geometry":{"type":"Polygon","coordinates":[[[-91.027,40.194],[-91.505,40.2],[-91.513,40.181],[-91.512,40.139],[-91.49,40.057],[-91.495,40.036],[-91.465,39.984],[-91.419,39.928],[-91.421,39.915],[-91.444,39.894],[-91.447,39.872],[-91.432,39.84],[-91.368,39.8],[-91.362,39.788],[-91.365,39.759],[-90.916,39.757],[-90.912,40.193],[-91.027,40.194]]]}},{"type":"Feature","properties":{"fips":"17003"},"geometry":{"type":"Polygon","coordinates":[[[-89.518,37.287],[-89.49,37.251],[-89.459,37.249],[-89.467,37.222],[-89.462,37.2],[-89.426,37.138],[-89.379,37.095],[-89.376,37.081],[-89.385,37.055],[-89.378,37.04],[-89.279,36.989],[-89.264,37.0],[-89.26,37.023],[-89.305,37.048],[-89.308,37.068],[-89.26,37.064],[-89.255,37.072],[-89.234,37.037],[-89.201,37.016],[-89.185,36.974],[-89.17,36.97],[-89.133,36.982],[-89.17,37.007],[-89.179,37.022],[-89.182,37.039],[-89.173,37.07],[-89.197,37.089],[-89.232,37.09],[-89.244,37.101],[-89.254,37.099],[-89.273,37.126],[-89.258,37.145],[-89.257,37.161],[-89.269,37.161],[-89.261,37.167],[-89.267,37.181],[-89.252,37.191],[-89.264,37.204],[-89.259,37.21],[-89.268,37.226],[-89.256,37.228],[-89.246,37.264],[-89.203,37.289],[-89.207,37.322],[-89.249,37.335],[-89.487,37.335],[-89.511,37.313],[-89.518,37.287]]]}},{"type":"Feature","properties":{"fips":"17005"},"geometry":{"type":"Polygon","coordinates":[[[-89.372,38.741],[-89.254,38.742],[-89.257,38.995],[-89.25,38.999],[-89.25,39.028],[-89.586,39.028],[-89.586,38.999],[-89.639,38.999],[-89.637,38.874],[-89.6,38.875],[-89.597,38.743],[-89.372,38.741]]]}},{"type":"Feature","properties":{"fips":"17007"},"geometry":{"type":"Polygon","coordinates":[[[-88.705,42.241],[-88.707,42.494],[-88.94,42.495],[-88.94,42.152],[-88.706,42.154],[-88.705,42.241]]]}},{"type":"Feature","properties":{"fips":"17009"},"geometry":{"type":"Polygon","coordinates":[[[-90.537,39.926],[-90.532,39.946],[-90.511,39.968],[-90.514,39.988],[-90.544,39.98],[-90.608,39.982],[-90.602,40.003],[-90.619,40.015],[-90.607,40.029],[-90.612,40.033],[-90.63,40.024],[-90.654,40.033],[-90.661,40.046],[-90.675,40.046],[-90.672,40.08],[-90.696,40.08],[-90.709,40.09],[-90.696,40.104],[-90.913,40.104],[-90.917,39.845],[-90.571,39.839],[-90.585,39.875],[-90.576,39.891],[-90.542,39.914],[-90.537,39.926]]]}},{"type":"Feature","properties":{"fips":"17011"},"geometry":{"type":"Polygon","coordinates":[[[-89.167,41.496],[-89.167,41.585],[-89.862,41.584],[-89.858,41.234],[-89.639,41.234],[-89.639,41.149],[-89.466,41.149],[-89.466,41.234],[-89.357,41.233],[-89.337,41.282],[-89.34,41.298],[-89.269,41.322],[-89.164,41.31],[-89.167,41.496]]]}},{"type":"Feature","properties":{"fips":"17013"},"geometry":{"type":"Polygon","coordinates":[[[-90.937,39.4],[-90.929,39.388],[-90.793,39.309],[-90.752,39.265],[-90.728,39.253],[-90.708,39.151],[-90.681,39.101],[-90.683,39.088],[-90.714,39.054],[-90.678,38.992],[-90.663,38.926],[-90.623,38.887],[-90.582,38.869],[-90.549,38.873],[-90.507,38.903],[-90.472,38.959],[-90.451,38.968],[-90.487,38.968],[-90.524,38.955],[-90.543,38.965],[-90.574,39.001],[-90.574,39.03],[-90.59,39.051],[-90.581,39.066],[-90.615,39.145],[-90.612,39.167],[-90.591,39.199],[-90.598,39.243],[-90.61,39.26],[-90.602,39.293],[-90.622,39.365],[-90.614,39.395],[-90.937,39.4]]]}},{"type":"Feature","properties":{"fips":"17015"},"geometry":{"type":"Polygon","coordinates":[[[-89.978,41.931],[-89.685,41.93],[-89.688,42.199],[-90.317,42.194],[-90.216,42.157],[-90.201,42.131],[-90.17,42.125],[-90.163,42.117],[-90.164,42.042],[-90.14,42.003],[-90.164,41.956],[-90.152,41.929],[-89.978,41.931]]]}},{"type":"Feature","properties":{"fips":"17017"},"geometry":{"type":"Polygon","coordinates":[[[-89.995,40.047],[-89.997,40.113],[-90.0,40.103],[-90.004,40.109],[-90.012,40.101],[-90.032,40.111],[-90.039,40.103],[-90.043,40.109],[-90.052,40.099],[-90.065,40.1],[-90.081,40.08],[-90.126,40.077],[-90.135,40.062],[-90.15,40.068],[-90.176,40.06],[-90.183,40.067],[-90.195,40.053],[-90.207,40.06],[-90.217,40.051],[-90.235,40.061],[-90.286,40.055],[-90.305,40.078],[-90.303,40.092],[-90.315,40.116],[-90.368,40.124],[-90.393,40.092],[-90.394,40.078],[-90.429,40.06],[-90.436,40.021],[-90.512,39.993],[-90.511,39.968],[-90.532,39.946],[-90.538,39.918],[-90.576,39.891],[-90.584,39.877],[-89.994,39.873],[-89.995,40.047]]]}},{"type":"Feature","properties":{"fips":"17019"},"geometry":{"type":"Polygon","coordinates":[[[-88.236,39.879],[-87.938,39.88],[-87.942,40.225],[-87.929,40.226],[-87.932,40.399],[-88.46,40.399],[-88.462,39.879],[-88.236,39.879]]]}},{"type":"Feature","properties":{"fips":"17021"},"geometry":{"type":"Polygon","coordinates":[[[-89.426,39.742],[-89.425,39.684],[-89.479,39.684],[-89.478,39.641],[-89.535,39.641],[-89.531,39.349],[-89.025,39.346],[-89.026,39.655],[-89.139,39.655],[-89.142,39.801],[-89.188,39.818],[-89.234,39.813],[-89.236,39.822],[-89.249,39.826],[-89.261,39.805],[-89.292,39.793],[-89.303,39.776],[-89.329,39.769],[-89.328,39.764],[-89.354,39.772],[-89.363,39.756],[-89.374,39.759],[-89.397,39.742],[-89.41,39.744],[-89.425,39.762],[-89.426,39.742]]]}},{"type":"Feature","properties":{"fips":"17023"},"geometry":{"type":"Polygon","coordinates":[[[-88.014,39.481],[-88.008,39.174],[-87.746,39.179],[-87.747,39.172],[-87.657,39.172],[-87.657,39.158],[-87.629,39.158],[-87.641,39.16],[-87.64,39.167],[-87.621,39.17],[-87.62,39.186],[-87.606,39.185],[-87.577,39.211],[-87.579,39.244],[-87.572,39.252],[-87.593,39.247],[-87.606,39.261],[-87.601,39.274],[-87.61,39.282],[-87.598,39.299],[-87.621,39.305],[-87.606,39.311],[-87.585,39.337],[-87.554,39.34],[-87.544,39.353],[-87.532,39.348],[-87.532,39.477],[-87.689,39.477],[-87.689,39.487],[-88.014,39.481]]]}},{"type":"Feature","properties":{"fips":"17025"},"geometry":{"type":"Polygon","coordinates":[[[-88.695,38.826],[-88.698,38.606],[-88.249,38.602],[-88.271,38.612],[-88.271,38.619],[-88.286,38.619],[-88.281,38.625],[-88.298,38.635],[-88.272,38.664],[-88.285,38.682],[-88.282,38.72],[-88.287,38.728],[-88.258,38.731],[-88.259,38.848],[-88.362,38.852],[-88.362,38.911],[-88.694,38.915],[-88.695,38.826]]]}},{"type":"Feature","properties":{"fips":"17027"},"geometry":{"type":"Polygon","coordinates":[[[-89.479,38.471],[-89.428,38.499],[-89.411,38.487],[-89.406,38.496],[-89.401,38.489],[-89.367,38.498],[-89.36,38.517],[-89.351,38.519],[-89.346,38.51],[-89.311,38.513],[-89.294,38.505],[-89.264,38.51],[-89.144,38.503],[-89.138,38.736],[-89.597,38.743],[-89.595,38.656],[-89.707,38.655],[-89.704,38.416],[-89.695,38.417],[-89.697,38.425],[-89.687,38.43],[-89.678,38.425],[-89.678,38.432],[-89.667,38.432],[-89.664,38.445],[-89.645,38.441],[-89.646,38.448],[-89.633,38.447],[-89.629,38.464],[-89.623,38.461],[-89.614,38.473],[-89.578,38.483],[-89.574,38.478],[-89.565,38.483],[-89.568,38.476],[-89.541,38.474],[-89.54,38.481],[-89.529,38.481],[-89.514,38.473],[-89.491,38.472],[-89.49,38.478],[-89.479,38.471]]]}},{"type":"Feature","properties":{"fips":"17029"},"geometry":{"type":"Polygon","coordinates":[[[-87.964,39.584],[-87.966,39.686],[-88.063,39.681],[-88.064,39.653],[-88.472,39.652],[-88.471,39.375],[-88.012,39.379],[-88.014,39.481],[-87.96,39.481],[-87.964,39.584]]]}},{"type":"Feature","properties":{"fips":"17031"},"geometry":{"type":"Polygon","coordinates":[[[-87.525,41.645],[-87.524,41.76],[-87.208,41.761],[-87.111,42.149],[-88.238,42.154],[-88.238,42.067],[-88.264,42.067],[-88.263,41.986],[-87.92,41.994],[-87.914,41.717],[-87.967,41.687],[-88.029,41.685],[-88.028,41.642],[-87.912,41.644],[-87.909,41.557],[-87.793,41.559],[-87.79,41.47],[-87.526,41.47],[-87.525,41.645]]]}},{"type":"Feature","properties":{"fips":"17033"},"geometry":{"type":"Polygon","coordinates":[[[-87.74,39.172],[-87.747,39.172],[-87.746,39.179],[-87.95,39.175],[-87.946,38.85],[-87.531,38.853],[-87.553,38.863],[-87.543,38.864],[-87.547,38.876],[-87.535,38.879],[-87.544,38.895],[-87.536,38.887],[-87.534,38.901],[-87.517,38.904],[-87.528,38.908],[-87.528,38.919],[-87.519,38.923],[-87.522,38.941],[-87.512,38.954],[-87.529,38.972],[-87.577,38.987],[-87.56,38.992],[-87.579,39.002],[-87.57,39.019],[-87.58,39.041],[-87.573,39.057],[-87.596,39.08],[-87.62,39.087],[-87.616,39.103],[-87.655,39.109],[-87.635,39.12],[-87.658,39.135],[-87.653,39.149],[-87.628,39.157],[-87.657,39.158],[-87.657,39.172],[-87.74,39.172]]]}},{"type":"Feature","properties":{"fips":"17035"},"geometry":{"type":"Polygon","coordinates":[[[-88.224,39.171],[-88.008,39.174],[-88.012,39.379],[-88.471,39.375],[-88.471,39.171],[-88.224,39.171]]]}},{"type":"Feature","properties":{"fips":"17037"},"geometry":{"type":"Polygon","coordinates":[[[-88.651,41.631],[-88.602,41.631],[-88.602,42.066],[-88.588,42.066],[-88.589,42.154],[-88.94,42.152],[-88.939,41.628],[-88.651,41.631]]]}},{"type":"Feature","properties":{"fips":"17039"},"geometry":{"type":"Polygon","coordinates":[[[-88.803,40.055],[-88.745,40.055],[-88.745,40.099],[-88.688,40.099],[-88.688,40.142],[-88.575,40.282],[-89.149,40.282],[-89.145,40.049],[-88.803,40.055]]]}},{"type":"Feature","properties":{"fips":"17041"},"geometry":{"type":"Polygon","coordinates":[[[-88.101,39.652],[-88.064,39.653],[-88.063,39.681],[-87.966,39.686],[-87.969,39.792],[-87.937,39.792],[-87.938,39.88],[-88.462,39.879],[-88.462,39.792],[-88.473,39.792],[-88.472,39.652],[-88.101,39.652]]]}},{"type":"Feature","properties":{"fips":"17043"},"geometry":{"type":"Polygon","coordinates":[[[-87.92,41.953],[-87.92,41.994],[-88.263,41.986],[-88.262,41.725],[-88.03,41.729],[-88.029,41.685],[-87.967,41.687],[-87.914,41.717],[-87.92,41.953]]]}},{"type":"Feature","properties":{"fips":"17045"},"geometry":{"type":"Polygon","coordinates":[[[-87.938,39.88],[-87.937,39.792],[-87.969,39.792],[-87.96,39.481],[-87.689,39.487],[-87.689,39.477],[-87.532,39.477],[-87.533,39.883],[-87.582,39.882],[-87.558,39.869],[-87.579,39.868],[-87.617,39.869],[-87.615,39.882],[-87.938,39.88]]]}},{"type":"Feature","properties":{"fips":"17047"},"geometry":{"type":"Polygon","coordinates":[[[-88.148,38.508],[-88.151,38.256],[-87.991,38.26],[-87.989,38.273],[-87.973,38.274],[-87.978,38.282],[-87.951,38.291],[-87.957,38.306],[-87.946,38.31],[-87.947,38.319],[-87.958,38.32],[-87.954,38.34],[-87.977,38.378],[-87.965,38.391],[-87.976,38.401],[-87.96,38.42],[-87.952,38.418],[-87.956,38.425],[-87.948,38.429],[-87.953,38.432],[-87.943,38.45],[-87.957,38.497],[-87.948,38.506],[-87.953,38.52],[-87.937,38.528],[-87.953,38.543],[-87.955,38.57],[-88.148,38.569],[-88.148,38.508]]]}},{"type":"Feature","properties":{"fips":"17049"},"geometry":{"type":"Polygon","coordinates":[[[-88.805,39.173],[-88.807,38.912],[-88.362,38.911],[-88.361,39.171],[-88.471,39.171],[-88.471,39.215],[-88.654,39.216],[-88.805,39.216],[-88.805,39.173]]]}},{"type":"Feature","properties":{"fips":"17051"},"geometry":{"type":"Polygon","coordinates":[[[-88.808,38.824],[-88.695,38.826],[-88.694,38.915],[-88.807,38.912],[-88.805,39.216],[-89.251,39.218],[-89.25,38.999],[-89.257,38.999],[-89.257,38.991],[-89.254,38.742],[-89.138,38.736],[-89.138,38.824],[-88.808,38.824]]]}},{"type":"Feature","properties":{"fips":"17053"},"geometry":{"type":"Polygon","coordinates":[[[-88.247,40.995],[-88.235,40.618],[-88.459,40.617],[-88.46,40.399],[-87.932,40.399],[-87.935,40.486],[-88.118,40.488],[-88.132,40.998],[-88.247,40.995]]]}},{"type":"Feature","properties":{"fips":"17055"},"geometry":{"type":"Polygon","coordinates":[[[-88.706,37.951],[-88.705,38.125],[-88.851,38.127],[-89.13,38.125],[-89.131,38.104],[-89.138,38.105],[-89.115,38.094],[-89.123,38.082],[-89.124,38.064],[-89.117,38.063],[-89.133,38.055],[-89.13,38.048],[-89.139,38.047],[-89.139,38.034],[-89.147,38.031],[-89.136,38.018],[-89.145,38.011],[-89.14,37.995],[-89.155,37.967],[-89.178,37.952],[-89.151,37.95],[-89.151,37.862],[-89.138,37.862],[-88.707,37.863],[-88.706,37.951]]]}},{"type":"Feature","properties":{"fips":"17057"},"geometry":{"type":"Polygon","coordinates":[[[-90.446,40.628],[-90.452,40.189],[-90.2,40.184],[-90.169,40.213],[-90.121,40.233],[-90.107,40.261],[-90.069,40.296],[-90.069,40.314],[-90.053,40.328],[-90.052,40.352],[-90.038,40.375],[-89.984,40.393],[-89.955,40.42],[-89.909,40.445],[-89.872,40.513],[-89.874,40.625],[-89.989,40.626],[-89.986,40.712],[-90.444,40.715],[-90.446,40.628]]]}},{"type":"Feature","properties":{"fips":"17059"},"geometry":{"type":"Polygon","coordinates":[[[-88.04,37.776],[-88.031,37.807],[-88.069,37.801],[-88.092,37.822],[-88.08,37.831],[-88.037,37.823],[-88.027,37.83],[-88.028,37.839],[-88.059,37.849],[-88.084,37.886],[-88.136,37.916],[-88.137,37.908],[-88.375,37.908],[-88.375,37.6],[-88.18,37.599],[-88.153,37.574],[-88.134,37.575],[-88.157,37.633],[-88.159,37.664],[-88.122,37.71],[-88.064,37.739],[-88.04,37.776]]]}},{"type":"Feature","properties":{"fips":"17061"},"geometry":{"type":"Polygon","coordinates":[[[-90.295,39.225],[-90.202,39.225],[-90.203,39.258],[-90.148,39.262],[-90.154,39.52],[-90.581,39.522],[-90.611,39.457],[-90.622,39.367],[-90.602,39.293],[-90.61,39.26],[-90.592,39.216],[-90.592,39.196],[-90.615,39.154],[-90.604,39.118],[-90.598,39.137],[-90.583,39.144],[-90.585,39.162],[-90.575,39.168],[-90.581,39.185],[-90.572,39.177],[-90.558,39.188],[-90.545,39.19],[-90.544,39.183],[-90.537,39.193],[-90.532,39.187],[-90.527,39.192],[-90.503,39.182],[-90.506,39.173],[-90.496,39.16],[-90.488,39.164],[-90.488,39.175],[-90.313,39.174],[-90.314,39.225],[-90.295,39.225]]]}},{"type":"Feature","properties":{"fips":"17063"},"geometry":{"type":"Polygon","coordinates":[[[-88.299,41.113],[-88.241,41.114],[-88.252,41.463],[-88.596,41.457],[-88.586,41.108],[-88.299,41.113]]]}},{"type":"Feature","properties":{"fips":"17065"},"geometry":{"type":"Polygon","coordinates":[[[-88.485,37.907],[-88.375,37.908],[-88.37,38.255],[-88.702,38.257],[-88.707,37.907],[-88.485,37.907]]]}},{"type":"Feature","properties":{"fips":"17067"},"geometry":{"type":"Polygon","coordinates":[[[-90.906,40.551],[-90.904,40.639],[-91.248,40.638],[-91.349,40.61],[-91.406,40.552],[-91.404,40.539],[-91.385,40.531],[-91.364,40.5],[-91.381,40.446],[-91.375,40.393],[-91.416,40.381],[-91.462,40.342],[-91.491,40.283],[-91.491,40.259],[-91.506,40.239],[-91.505,40.2],[-90.912,40.193],[-90.906,40.551]]]}},{"type":"Feature","properties":{"fips":"17069"},"geometry":{"type":"Polygon","coordinates":[[[-88.223,37.458],[-88.084,37.472],[-88.065,37.489],[-88.063,37.515],[-88.121,37.568],[-88.153,37.574],[-88.18,37.599],[-88.413,37.6],[-88.415,37.424],[-88.396,37.421],[-88.364,37.402],[-88.3,37.446],[-88.223,37.458]]]}},{"type":"Feature","properties":{"fips":"17071"},"geometry":{"type":"Polygon","coordinates":[[[-90.904,40.639],[-90.79,40.636],[-90.785,41.069],[-90.949,41.07],[-90.942,41.035],[-90.958,40.98],[-90.952,40.954],[-90.963,40.925],[-91.01,40.901],[-91.056,40.848],[-91.093,40.821],[-91.098,40.806],[-91.092,40.78],[-91.11,40.746],[-91.116,40.725],[-91.111,40.703],[-91.121,40.673],[-91.185,40.638],[-90.904,40.639]]]}},{"type":"Feature","properties":{"fips":"17073"},"geometry":{"type":"Polygon","coordinates":[[[-89.857,41.497],[-89.862,41.584],[-90.186,41.585],[-90.18,41.57],[-90.196,41.54],[-90.25,41.523],[-90.359,41.506],[-90.377,41.479],[-90.432,41.457],[-90.438,41.151],[-89.868,41.149],[-89.868,41.234],[-89.857,41.235],[-89.857,41.497]]]}},{"type":"Feature","properties":{"fips":"17075"},"geometry":{"type":"Polygon","coordinates":[[[-87.878,40.486],[-87.526,40.491],[-87.526,41.01],[-88.132,40.998],[-88.118,40.488],[-87.878,40.486]]]}},{"type":"Feature","properties":{"fips":"17077"},"geometry":{"type":"Polygon","coordinates":[[[-89.453,37.6],[-89.154,37.6],[-89.151,37.95],[-89.595,37.955],[-89.658,37.856],[-89.664,37.829],[-89.681,37.823],[-89.66,37.786],[-89.666,37.752],[-89.65,37.745],[-89.617,37.75],[-89.583,37.713],[-89.514,37.69],[-89.518,37.641],[-89.476,37.59],[-89.489,37.58],[-89.518,37.584],[-89.522,37.572],[-89.503,37.578],[-89.502,37.571],[-89.468,37.563],[-89.453,37.579],[-89.448,37.598],[-89.453,37.6]]]}},{"type":"Feature","properties":{"fips":"17079"},"geometry":{"type":"Polygon","coordinates":[[[-88.057,38.849],[-87.946,38.85],[-87.95,39.175],[-88.361,39.171],[-88.362,38.852],[-88.057,38.849]]]}},{"type":"Feature","properties":{"fips":"17081"},"geometry":{"type":"Polygon","coordinates":[[[-88.931,38.125],[-88.705,38.125],[-88.699,38.475],[-89.144,38.474],[-89.15,38.125],[-88.931,38.125]]]}},{"type":"Feature","properties":{"fips":"17083"},"geometry":{"type":"Polygon","coordinates":[[[-90.146,39.087],[-90.148,39.262],[-90.203,39.258],[-90.202,39.225],[-90.314,39.225],[-90.313,39.174],[-90.488,39.175],[-90.488,39.164],[-90.496,39.16],[-90.506,39.173],[-90.503,39.182],[-90.527,39.192],[-90.532,39.187],[-90.537,39.193],[-90.544,39.183],[-90.545,39.19],[-90.558,39.188],[-90.572,39.177],[-90.581,39.185],[-90.575,39.168],[-90.585,39.162],[-90.583,39.144],[-90.598,39.137],[-90.604,39.118],[-90.581,39.066],[-90.59,39.05],[-90.575,39.033],[-90.572,38.996],[-90.535,38.958],[-90.515,38.955],[-90.468,38.969],[-90.406,38.963],[-90.306,38.924],[-90.276,38.924],[-90.274,38.999],[-90.146,38.999],[-90.146,39.087]]]}},{"type":"Feature","properties":{"fips":"17085"},"geometry":{"type":"Polygon","coordinates":[[[-90.214,42.196],[-89.92,42.197],[-89.926,42.506],[-90.643,42.508],[-90.656,42.491],[-90.646,42.471],[-90.568,42.44],[-90.555,42.416],[-90.477,42.384],[-90.444,42.355],[-90.416,42.323],[-90.431,42.278],[-90.419,42.254],[-90.391,42.225],[-90.317,42.194],[-90.214,42.196]]]}},{"type":"Feature","properties":{"fips":"17087"},"geometry":{"type":"Polygon","coordinates":[[[-88.82,37.335],[-88.711,37.337],[-88.709,37.599],[-89.041,37.597],[-89.045,37.294],[-89.005,37.311],[-88.964,37.297],[-88.927,37.303],[-88.898,37.317],[-88.896,37.33],[-88.905,37.336],[-88.82,37.335]]]}},{"type":"Feature","properties":{"fips":"17089"},"geometry":{"type":"Polygon","coordinates":[[[-88.375,41.723],[-88.262,41.725],[-88.264,42.067],[-88.238,42.067],[-88.238,42.154],[-88.589,42.154],[-88.588,42.066],[-88.602,42.066],[-88.602,41.72],[-88.375,41.723]]]}},{"type":"Feature","properties":{"fips":"17091"},"geometry":{"type":"Polygon","coordinates":[[[-87.655,41.008],[-87.526,41.01],[-87.527,41.298],[-88.014,41.292],[-88.012,41.206],[-88.244,41.202],[-88.241,41.114],[-88.252,41.114],[-88.247,40.995],[-87.655,41.008]]]}},{"type":"Feature","properties":{"fips":"17093"},"geometry":{"type":"Polygon","coordinates":[[[-88.365,41.46],[-88.252,41.463],[-88.261,41.725],[-88.604,41.72],[-88.596,41.457],[-88.365,41.46]]]}},{"type":"Feature","properties":{"fips":"17095"},"geometry":{"type":"Polygon","coordinates":[[[-89.985,40.974],[-89.985,41.149],[-90.438,41.151],[-90.444,40.715],[-89.986,40.712],[-89.985,40.974]]]}},{"type":"Feature","properties":{"fips":"17097"},"geometry":{"type":"Polygon","coordinates":[[[-87.898,42.494],[-88.199,42.495],[-88.2,42.154],[-87.111,42.149],[-87.02,42.493],[-87.898,42.494]]]}},{"type":"Feature","properties":{"fips":"17099"},"geometry":{"type":"Polygon","coordinates":[[[-88.701,41.107],[-88.586,41.108],[-88.602,41.631],[-89.167,41.629],[-89.162,41.104],[-89.047,41.105],[-89.048,40.926],[-88.931,40.928],[-88.931,41.106],[-88.701,41.107]]]}},{"type":"Feature","properties":{"fips":"17101"},"geometry":{"type":"Polygon","coordinates":[[[-87.611,38.644],[-87.594,38.667],[-87.531,38.684],[-87.506,38.734],[-87.496,38.74],[-87.504,38.749],[-87.497,38.767],[-87.515,38.771],[-87.496,38.785],[-87.527,38.818],[-87.522,38.827],[-87.528,38.852],[-87.908,38.85],[-87.912,38.57],[-87.652,38.568],[-87.639,38.575],[-87.638,38.593],[-87.612,38.589],[-87.627,38.607],[-87.616,38.625],[-87.621,38.638],[-87.611,38.644]]]}},{"type":"Feature","properties":{"fips":"17103"},"geometry":{"type":"Polygon","coordinates":[[[-89.052,41.627],[-88.939,41.628],[-88.941,41.892],[-89.361,41.888],[-89.36,41.903],[-89.399,41.903],[-89.414,41.885],[-89.432,41.894],[-89.423,41.906],[-89.466,41.912],[-89.48,41.903],[-89.629,41.902],[-89.631,41.585],[-89.167,41.585],[-89.167,41.629],[-89.052,41.627]]]}},{"type":"Feature","properties":{"fips":"17105"},"geometry":{"type":"Polygon","coordinates":[[[-88.471,41.109],[-88.931,41.106],[-88.929,40.753],[-88.584,40.758],[-88.575,40.617],[-88.235,40.618],[-88.252,41.114],[-88.471,41.109]]]}},{"type":"Feature","properties":{"fips":"17107"},"geometry":{"type":"Polygon","coordinates":[[[-89.144,39.961],[-89.149,40.283],[-89.263,40.281],[-89.264,40.325],[-89.603,40.32],[-89.601,40.092],[-89.579,40.092],[-89.578,39.976],[-89.484,39.977],[-89.483,39.933],[-89.405,39.933],[-89.405,39.918],[-89.143,39.918],[-89.144,39.961]]]}},{"type":"Feature","properties":{"fips":"17109"},"geometry":{"type":"Polygon","coordinates":[[[-90.673,40.631],[-90.904,40.639],[-90.91,40.284],[-90.45,40.276],[-90.446,40.628],[-90.673,40.631]]]}},{"type":"Feature","properties":{"fips":"17111"},"geometry":{"type":"Polygon","coordinates":[[[-88.354,42.154],[-88.2,42.154],[-88.199,42.495],[-88.707,42.494],[-88.706,42.154],[-88.354,42.154]]]}},{"type":"Feature","properties":{"fips":"17113"},"geometry":{"type":"Polygon","coordinates":[[[-88.92,40.283],[-88.46,40.282],[-88.459,40.617],[-88.575,40.617],[-88.584,40.758],[-88.987,40.752],[-88.985,40.665],[-89.045,40.664],[-89.044,40.627],[-89.102,40.625],[-89.101,40.612],[-89.134,40.611],[-89.134,40.597],[-89.269,40.594],[-89.263,40.281],[-88.92,40.283]]]}},{"type":"Feature","properties":{"fips":"17115"},"geometry":{"type":"Polygon","coordinates":[[[-89.145,40.049],[-89.143,39.918],[-89.218,39.917],[-89.217,39.814],[-89.188,39.818],[-89.142,39.801],[-89.139,39.655],[-88.811,39.653],[-88.813,39.74],[-88.758,39.74],[-88.759,39.792],[-88.746,39.792],[-88.745,40.055],[-89.145,40.049]]]}},{"type":"Feature","properties":{"fips":"17117"},"geometry":{"type":"Polygon","coordinates":[[[-89.704,39.348],[-89.702,39.523],[-90.154,39.52],[-90.146,38.999],[-89.699,38.999],[-89.704,39.348]]]}},{"type":"Feature","properties":{"fips":"17119"},"geometry":{"type":"Polygon","coordinates":[[[-89.638,38.918],[-89.639,38.999],[-90.274,38.999],[-90.276,38.924],[-90.226,38.909],[-90.109,38.844],[-90.119,38.802],[-90.166,38.773],[-90.176,38.754],[-90.21,38.726],[-90.209,38.703],[-90.181,38.66],[-89.595,38.656],[-89.6,38.875],[-89.637,38.874],[-89.638,38.918]]]}},{"type":"Feature","properties":{"fips":"17121"},"geometry":{"type":"Polygon","coordinates":[[[-88.699,38.562],[-88.695,38.826],[-89.138,38.824],[-89.144,38.474],[-88.699,38.475],[-88.699,38.562]]]}},{"type":"Feature","properties":{"fips":"17123"},"geometry":{"type":"Polygon","coordinates":[[[-89.047,41.013],[-89.047,41.105],[-89.358,41.104],[-89.336,41.117],[-89.329,41.148],[-89.639,41.149],[-89.639,40.974],[-89.448,40.973],[-89.455,40.936],[-89.473,40.921],[-89.048,40.926],[-89.047,41.013]]]}},{"type":"Feature","properties":{"fips":"17125"},"geometry":{"type":"Polygon","coordinates":[[[-89.939,40.137],[-89.908,40.132],[-89.908,40.138],[-89.898,40.128],[-89.873,40.137],[-89.866,40.128],[-89.839,40.131],[-89.81,40.121],[-89.773,40.132],[-89.749,40.127],[-89.709,40.147],[-89.695,40.141],[-89.686,40.154],[-89.671,40.154],[-89.668,40.161],[-89.634,40.153],[-89.603,40.122],[-89.603,40.32],[-89.715,40.319],[-89.717,40.436],[-89.925,40.436],[-89.955,40.42],[-89.984,40.393],[-90.041,40.372],[-90.053,40.328],[-90.069,40.314],[-90.071,40.293],[-90.107,40.261],[-90.125,40.229],[-90.158,40.22],[-90.195,40.191],[-90.21,40.153],[-90.268,40.155],[-90.335,40.137],[-90.355,40.124],[-90.315,40.116],[-90.303,40.092],[-90.305,40.078],[-90.286,40.055],[-90.235,40.061],[-90.217,40.051],[-90.207,40.06],[-90.204,40.053],[-90.195,40.054],[-90.189,40.066],[-90.135,40.062],[-90.116,40.081],[-90.081,40.08],[-90.065,40.1],[-90.052,40.099],[-90.043,40.109],[-90.039,40.103],[-90.032,40.111],[-90.013,40.101],[-90.003,40.109],[-90.0,40.103],[-89.998,40.113],[-89.993,40.108],[-89.983,40.114],[-89.987,40.129],[-89.974,40.127],[-89.97,40.142],[-89.946,40.13],[-89.939,40.137]]]}},{"type":"Feature","properties":{"fips":"17127"},"geometry":{"type":"Polygon","coordinates":[[[-88.643,37.282],[-88.711,37.337],[-88.905,37.336],[-88.896,37.33],[-88.898,37.317],[-88.929,37.303],[-88.928,37.226],[-88.803,37.188],[-88.732,37.144],[-88.693,37.141],[-88.619,37.117],[-88.567,37.075],[-88.522,37.066],[-88.49,37.068],[-88.49,37.159],[-88.643,37.282]]]}},{"type":"Feature","properties":{"fips":"17129"},"geometry":{"type":"Polygon","coordinates":[[[-89.669,40.161],[-89.695,40.141],[-89.709,40.147],[-89.749,40.127],[-89.773,40.132],[-89.81,40.121],[-89.839,40.131],[-89.866,40.128],[-89.873,40.137],[-89.885,40.135],[-89.886,40.128],[-89.927,40.14],[-89.946,40.13],[-89.97,40.142],[-89.974,40.127],[-89.987,40.129],[-89.983,40.114],[-89.995,40.109],[-89.995,39.902],[-89.769,39.902],[-89.769,39.917],[-89.702,39.917],[-89.698,39.975],[-89.578,39.976],[-89.579,40.092],[-89.601,40.092],[-89.602,40.122],[-89.628,40.149],[-89.669,40.161]]]}},{"type":"Feature","properties":{"fips":"17131"},"geometry":{"type":"Polygon","coordinates":[[[-91.114,41.25],[-91.112,41.239],[-91.073,41.207],[-91.042,41.166],[-91.008,41.166],[-90.99,41.156],[-90.947,41.097],[-90.949,41.07],[-90.439,41.064],[-90.434,41.327],[-91.072,41.333],[-91.075,41.306],[-91.114,41.25]]]}},{"type":"Feature","properties":{"fips":"17133"},"geometry":{"type":"Polygon","coordinates":[[[-89.985,38.308],[-90.036,38.309],[-90.036,38.324],[-90.146,38.412],[-90.145,38.427],[-90.264,38.521],[-90.291,38.431],[-90.342,38.388],[-90.367,38.341],[-90.373,38.286],[-90.362,38.231],[-90.34,38.196],[-90.283,38.164],[-90.243,38.112],[-90.205,38.087],[-90.036,38.136],[-90.036,38.223],[-89.899,38.221],[-89.904,38.227],[-89.897,38.232],[-89.909,38.238],[-89.925,38.273],[-89.92,38.286],[-89.911,38.285],[-89.918,38.279],[-89.913,38.277],[-89.903,38.281],[-89.912,38.307],[-89.985,38.308]]]}},{"type":"Feature","properties":{"fips":"17135"},"geometry":{"type":"Polygon","coordinates":[[[-89.362,39.028],[-89.25,39.028],[-89.251,39.218],[-89.139,39.218],[-89.14,39.349],[-89.531,39.349],[-89.534,39.525],[-89.702,39.523],[-89.699,38.999],[-89.586,38.999],[-89.586,39.028],[-89.362,39.028]]]}},{"type":"Feature","properties":{"fips":"17137"},"geometry":{"type":"Polygon","coordinates":[[[-90.08,39.521],[-89.926,39.522],[-89.924,39.559],[-89.985,39.718],[-89.994,39.873],[-90.585,39.875],[-90.582,39.855],[-90.566,39.83],[-90.599,39.79],[-90.483,39.789],[-90.483,39.753],[-90.371,39.753],[-90.373,39.666],[-90.338,39.666],[-90.338,39.637],[-90.301,39.637],[-90.302,39.52],[-90.08,39.521]]]}},{"type":"Feature","properties":{"fips":"17139"},"geometry":{"type":"Polygon","coordinates":[[[-88.813,39.74],[-88.809,39.58],[-88.717,39.579],[-88.717,39.521],[-88.641,39.521],[-88.641,39.507],[-88.622,39.506],[-88.622,39.492],[-88.603,39.492],[-88.603,39.477],[-88.585,39.477],[-88.584,39.448],[-88.471,39.447],[-88.473,39.792],[-88.759,39.792],[-88.758,39.74],[-88.813,39.74]]]}},{"type":"Feature","properties":{"fips":"17141"},"geometry":{"type":"Polygon","coordinates":[[[-88.942,42.065],[-88.94,42.152],[-89.173,42.15],[-89.173,42.204],[-89.688,42.199],[-89.685,41.93],[-89.629,41.93],[-89.629,41.902],[-89.48,41.903],[-89.466,41.912],[-89.423,41.906],[-89.432,41.894],[-89.414,41.885],[-89.399,41.903],[-89.36,41.903],[-89.361,41.888],[-88.941,41.892],[-88.942,42.065]]]}},{"type":"Feature","properties":{"fips":"17143"},"geometry":{"type":"Polygon","coordinates":[[[-89.55,40.739],[-89.564,40.782],[-89.559,40.799],[-89.527,40.842],[-89.524,40.857],[-89.498,40.874],[-89.489,40.899],[-89.455,40.936],[-89.448,40.973],[-89.985,40.974],[-89.989,40.626],[-89.874,40.625],[-89.872,40.513],[-89.777,40.552],[-89.743,40.551],[-89.698,40.562],[-89.674,40.555],[-89.655,40.573],[-89.658,40.603],[-89.612,40.646],[-89.614,40.665],[-89.592,40.685],[-89.554,40.702],[-89.546,40.723],[-89.55,40.739]]]}},{"type":"Feature","properties":{"fips":"17145"},"geometry":{"type":"Polygon","coordinates":[[[-89.213,38.214],[-89.593,38.219],[-89.595,37.955],[-89.165,37.955],[-89.14,37.995],[-89.145,38.009],[-89.136,38.018],[-89.147,38.031],[-89.139,38.034],[-89.139,38.047],[-89.13,38.048],[-89.133,38.055],[-89.118,38.059],[-89.123,38.082],[-89.115,38.094],[-89.138,38.104],[-89.131,38.104],[-89.13,38.125],[-89.15,38.125],[-89.148,38.213],[-89.213,38.214]]]}},{"type":"Feature","properties":{"fips":"17147"},"geometry":{"type":"Polygon","coordinates":[[[-88.463,40.171],[-88.46,40.282],[-88.575,40.282],[-88.688,40.142],[-88.688,40.099],[-88.745,40.099],[-88.746,39.792],[-88.462,39.792],[-88.463,40.171]]]}},{"type":"Feature","properties":{"fips":"17149"},"geometry":{"type":"Polygon","coordinates":[[[-90.917,39.845],[-90.916,39.757],[-91.365,39.759],[-91.37,39.733],[-91.276,39.666],[-91.229,39.621],[-91.182,39.603],[-91.168,39.565],[-91.154,39.548],[-91.1,39.539],[-91.064,39.495],[-91.057,39.466],[-90.994,39.423],[-90.937,39.4],[-90.614,39.395],[-90.611,39.457],[-90.572,39.541],[-90.608,39.639],[-90.646,39.703],[-90.608,39.764],[-90.597,39.795],[-90.567,39.833],[-90.571,39.839],[-90.917,39.845]]]}},{"type":"Feature","properties":{"fips":"17151"},"geometry":{"type":"Polygon","coordinates":[[[-88.483,37.353],[-88.469,37.397],[-88.415,37.424],[-88.413,37.6],[-88.709,37.599],[-88.711,37.337],[-88.49,37.159],[-88.49,37.068],[-88.483,37.067],[-88.46,37.075],[-88.449,37.088],[-88.425,37.152],[-88.449,37.205],[-88.512,37.263],[-88.504,37.265],[-88.515,37.291],[-88.483,37.353]]]}},{"type":"Feature","properties":{"fips":"17153"},"geometry":{"type":"Polygon","coordinates":[[[-89.249,37.335],[-89.207,37.322],[-89.203,37.29],[-89.246,37.264],[-89.256,37.228],[-89.268,37.226],[-89.259,37.21],[-89.264,37.204],[-89.252,37.191],[-89.267,37.181],[-89.261,37.167],[-89.269,37.161],[-89.257,37.161],[-89.258,37.145],[-89.273,37.126],[-89.254,37.099],[-89.244,37.101],[-89.232,37.09],[-89.196,37.089],[-89.18,37.069],[-89.172,37.068],[-89.146,37.091],[-89.148,37.098],[-89.109,37.123],[-89.087,37.165],[-89.03,37.211],[-88.983,37.229],[-88.928,37.226],[-88.93,37.303],[-88.964,37.297],[-89.005,37.311],[-89.045,37.294],[-89.045,37.33],[-89.249,37.335]]]}},{"type":"Feature","properties":{"fips":"17155"},"geometry":{"type":"Polygon","coordinates":[[[-89.466,41.186],[-89.466,41.149],[-89.329,41.148],[-89.336,41.117],[-89.358,41.104],[-89.162,41.104],[-89.164,41.31],[-89.264,41.322],[-89.337,41.3],[-89.342,41.294],[-89.337,41.282],[-89.357,41.233],[-89.466,41.234],[-89.466,41.186]]]}},{"type":"Feature","properties":{"fips":"17157"},"geometry":{"type":"Polygon","coordinates":[[[-89.595,37.955],[-89.593,38.219],[-90.036,38.223],[-90.036,38.136],[-90.205,38.087],[-90.176,38.071],[-90.158,38.075],[-90.131,38.062],[-90.126,38.041],[-90.114,38.029],[-90.088,38.016],[-90.057,38.014],[-90.0,37.965],[-89.941,37.971],[-89.936,37.96],[-89.925,37.96],[-89.931,37.948],[-89.96,37.94],[-89.975,37.927],[-89.953,37.884],[-89.939,37.874],[-89.899,37.871],[-89.843,37.905],[-89.799,37.882],[-89.798,37.862],[-89.786,37.852],[-89.74,37.847],[-89.717,37.826],[-89.674,37.803],[-89.681,37.823],[-89.664,37.829],[-89.658,37.856],[-89.595,37.955]]]}},{"type":"Feature","properties":{"fips":"17159"},"geometry":{"type":"Polygon","coordinates":[[[-88.024,38.571],[-87.91,38.575],[-87.908,38.85],[-88.259,38.848],[-88.258,38.731],[-88.287,38.728],[-88.282,38.72],[-88.285,38.682],[-88.272,38.664],[-88.296,38.638],[-88.292,38.626],[-88.281,38.625],[-88.282,38.617],[-88.269,38.618],[-88.272,38.612],[-88.252,38.605],[-88.254,38.6],[-88.148,38.598],[-88.148,38.569],[-88.024,38.571]]]}},{"type":"Feature","properties":{"fips":"17161"},"geometry":{"type":"Polygon","coordinates":[[[-90.336,41.672],[-90.343,41.647],[-90.343,41.588],[-90.413,41.565],[-90.461,41.524],[-90.501,41.518],[-90.556,41.524],[-90.595,41.511],[-90.606,41.494],[-90.656,41.462],[-90.746,41.45],[-90.847,41.455],[-90.93,41.421],[-90.98,41.434],[-91.028,41.424],[-91.048,41.411],[-91.072,41.333],[-90.434,41.327],[-90.432,41.457],[-90.377,41.479],[-90.369,41.497],[-90.352,41.509],[-90.334,41.514],[-90.315,41.509],[-90.305,41.518],[-90.25,41.523],[-90.195,41.541],[-90.179,41.573],[-90.186,41.588],[-90.165,41.596],[-90.16,41.63],[-90.174,41.64],[-90.161,41.644],[-90.19,41.663],[-90.236,41.679],[-90.226,41.687],[-90.246,41.704],[-90.234,41.725],[-90.237,41.741],[-90.248,41.747],[-90.237,41.763],[-90.247,41.763],[-90.242,41.783],[-90.31,41.743],[-90.318,41.723],[-90.314,41.696],[-90.336,41.672]]]}},{"type":"Feature","properties":{"fips":"17163"},"geometry":{"type":"Polygon","coordinates":[[[-89.928,38.658],[-90.181,38.66],[-90.178,38.634],[-90.192,38.599],[-90.224,38.575],[-90.264,38.521],[-90.145,38.427],[-90.146,38.412],[-90.036,38.324],[-90.036,38.309],[-89.913,38.308],[-89.903,38.281],[-89.913,38.277],[-89.918,38.279],[-89.911,38.285],[-89.92,38.286],[-89.925,38.273],[-89.909,38.238],[-89.897,38.232],[-89.904,38.227],[-89.899,38.221],[-89.703,38.219],[-89.707,38.655],[-89.928,38.658]]]}},{"type":"Feature","properties":{"fips":"17165"},"geometry":{"type":"Polygon","coordinates":[[[-88.486,37.6],[-88.375,37.599],[-88.375,37.908],[-88.707,37.907],[-88.709,37.599],[-88.486,37.6]]]}},{"type":"Feature","properties":{"fips":"17167"},"geometry":{"type":"Polygon","coordinates":[[[-89.617,39.524],[-89.534,39.525],[-89.535,39.641],[-89.478,39.641],[-89.479,39.684],[-89.425,39.684],[-89.425,39.762],[-89.409,39.744],[-89.396,39.742],[-89.374,39.759],[-89.363,39.756],[-89.358,39.771],[-89.329,39.764],[-89.329,39.769],[-89.303,39.776],[-89.297,39.79],[-89.26,39.806],[-89.249,39.826],[-89.236,39.822],[-89.234,39.813],[-89.217,39.813],[-89.218,39.917],[-89.405,39.918],[-89.405,39.933],[-89.483,39.933],[-89.484,39.977],[-89.698,39.975],[-89.702,39.917],[-89.769,39.917],[-89.769,39.902],[-89.995,39.902],[-89.994,39.785],[-89.986,39.785],[-89.985,39.718],[-89.924,39.559],[-89.926,39.522],[-89.617,39.524]]]}},{"type":"Feature","properties":{"fips":"17169"},"geometry":{"type":"Polygon","coordinates":[[[-90.454,40.011],[-90.435,40.022],[-90.429,40.06],[-90.393,40.079],[-90.393,40.092],[-90.373,40.122],[-90.268,40.155],[-90.213,40.151],[-90.203,40.161],[-90.2,40.184],[-90.452,40.189],[-90.45,40.276],[-90.91,40.284],[-90.913,40.104],[-90.696,40.104],[-90.709,40.09],[-90.696,40.08],[-90.672,40.08],[-90.675,40.046],[-90.661,40.046],[-90.654,40.033],[-90.63,40.024],[-90.612,40.033],[-90.607,40.029],[-90.619,40.015],[-90.602,40.003],[-90.606,39.981],[-90.526,39.982],[-90.504,39.997],[-90.454,40.011]]]}},{"type":"Feature","properties":{"fips":"17171"},"geometry":{"type":"Polygon","coordinates":[[[-90.373,39.666],[-90.371,39.753],[-90.483,39.753],[-90.483,39.789],[-90.599,39.79],[-90.646,39.703],[-90.609,39.64],[-90.577,39.56],[-90.572,39.539],[-90.581,39.522],[-90.302,39.52],[-90.301,39.637],[-90.338,39.637],[-90.338,39.666],[-90.373,39.666]]]}},{"type":"Feature","properties":{"fips":"17173"},"geometry":{"type":"Polygon","coordinates":[[[-89.026,39.654],[-89.025,39.346],[-89.14,39.349],[-89.139,39.217],[-88.471,39.215],[-88.471,39.447],[-88.584,39.448],[-88.585,39.477],[-88.603,39.477],[-88.603,39.492],[-88.622,39.492],[-88.622,39.506],[-88.641,39.507],[-88.641,39.521],[-88.717,39.521],[-88.717,39.579],[-88.809,39.58],[-88.811,39.653],[-89.026,39.654]]]}},{"type":"Feature","properties":{"fips":"17175"},"geometry":{"type":"Polygon","coordinates":[[[-89.985,41.068],[-89.985,40.974],[-89.639,40.974],[-89.639,41.234],[-89.868,41.234],[-89.868,41.149],[-89.985,41.149],[-89.985,41.068]]]}},{"type":"Feature","properties":{"fips":"17177"},"geometry":{"type":"Polygon","coordinates":[[[-89.63,42.201],[-89.396,42.202],[-89.401,42.501],[-89.926,42.506],[-89.92,42.197],[-89.63,42.201]]]}},{"type":"Feature","properties":{"fips":"17179"},"geometry":{"type":"Polygon","coordinates":[[[-89.377,40.324],[-89.264,40.325],[-89.27,40.616],[-89.327,40.616],[-89.33,40.748],[-89.553,40.748],[-89.546,40.723],[-89.553,40.703],[-89.614,40.665],[-89.613,40.646],[-89.658,40.603],[-89.654,40.574],[-89.668,40.559],[-89.681,40.552],[-89.697,40.562],[-89.743,40.551],[-89.777,40.552],[-89.856,40.522],[-89.882,40.505],[-89.888,40.475],[-89.909,40.445],[-89.925,40.436],[-89.717,40.436],[-89.715,40.319],[-89.377,40.324]]]}},{"type":"Feature","properties":{"fips":"17181"},"geometry":{"type":"Polygon","coordinates":[[[-89.045,37.392],[-89.041,37.597],[-89.453,37.6],[-89.448,37.598],[-89.453,37.579],[-89.468,37.563],[-89.502,37.571],[-89.503,37.578],[-89.522,37.572],[-89.516,37.536],[-89.475,37.471],[-89.44,37.437],[-89.421,37.394],[-89.434,37.346],[-89.487,37.335],[-89.045,37.33],[-89.045,37.392]]]}},{"type":"Feature","properties":{"fips":"17183"},"geometry":{"type":"Polygon","coordinates":[[[-87.935,40.486],[-87.929,40.226],[-87.942,40.225],[-87.938,39.88],[-87.615,39.882],[-87.617,39.869],[-87.579,39.868],[-87.558,39.869],[-87.582,39.882],[-87.533,39.883],[-87.526,40.491],[-87.935,40.486]]]}},{"type":"Feature","properties":{"fips":"17185"},"geometry":{"type":"Polygon","coordinates":[[[-87.892,38.283],[-87.871,38.312],[-87.861,38.308],[-87.866,38.29],[-87.86,38.277],[-87.836,38.285],[-87.823,38.347],[-87.806,38.363],[-87.78,38.371],[-87.745,38.409],[-87.741,38.436],[-87.73,38.447],[-87.757,38.457],[-87.745,38.477],[-87.698,38.486],[-87.672,38.508],[-87.658,38.502],[-87.647,38.508],[-87.67,38.544],[-87.651,38.556],[-87.652,38.568],[-87.956,38.57],[-87.953,38.543],[-87.937,38.528],[-87.953,38.52],[-87.948,38.506],[-87.957,38.497],[-87.943,38.45],[-87.953,38.432],[-87.948,38.429],[-87.956,38.425],[-87.952,38.418],[-87.96,38.42],[-87.976,38.401],[-87.965,38.391],[-87.977,38.378],[-87.954,38.34],[-87.958,38.32],[-87.947,38.319],[-87.946,38.31],[-87.957,38.306],[-87.951,38.291],[-87.978,38.282],[-87.973,38.274],[-87.989,38.274],[-87.992,38.262],[-87.963,38.236],[-87.956,38.252],[-87.943,38.258],[-87.952,38.274],[-87.935,38.295],[-87.91,38.296],[-87.919,38.276],[-87.914,38.268],[-87.892,38.283]]]}},{"type":"Feature","properties":{"fips":"17187"},"geometry":{"type":"Polygon","coordinates":[[[-90.786,41.01],[-90.79,40.636],[-90.446,40.628],[-90.439,41.064],[-90.785,41.069],[-90.786,41.01]]]}},{"type":"Feature","properties":{"fips":"17189"},"geometry":{"type":"Polygon","coordinates":[[[-89.704,38.416],[-89.703,38.219],[-89.148,38.213],[-89.144,38.503],[-89.264,38.51],[-89.294,38.505],[-89.311,38.513],[-89.345,38.51],[-89.358,38.518],[-89.367,38.498],[-89.401,38.489],[-89.406,38.496],[-89.411,38.487],[-89.428,38.499],[-89.482,38.469],[-89.49,38.478],[-89.491,38.472],[-89.514,38.473],[-89.528,38.481],[-89.54,38.481],[-89.541,38.474],[-89.568,38.476],[-89.566,38.483],[-89.613,38.473],[-89.623,38.461],[-89.629,38.464],[-89.633,38.447],[-89.646,38.448],[-89.645,38.441],[-89.664,38.445],[-89.667,38.432],[-89.678,38.432],[-89.678,38.425],[-89.687,38.43],[-89.697,38.425],[-89.695,38.417],[-89.704,38.416]]]}},{"type":"Feature","properties":{"fips":"17191"},"geometry":{"type":"Polygon","coordinates":[[[-88.149,38.386],[-88.148,38.598],[-88.698,38.606],[-88.702,38.257],[-88.151,38.256],[-88.149,38.386]]]}},{"type":"Feature","properties":{"fips":"17193"},"geometry":{"type":"Polygon","coordinates":[[[-87.971,38.128],[-87.956,38.133],[-87.945,38.127],[-87.911,38.167],[-87.922,38.174],[-87.926,38.159],[-87.934,38.156],[-87.937,38.172],[-87.976,38.198],[-87.986,38.218],[-87.98,38.242],[-87.991,38.26],[-88.37,38.255],[-88.375,37.908],[-88.137,37.908],[-88.136,37.916],[-88.098,37.89],[-88.093,37.906],[-88.055,37.891],[-88.017,37.889],[-88.021,37.914],[-88.062,37.918],[-88.07,37.927],[-88.059,37.934],[-88.042,37.924],[-88.031,37.93],[-88.037,37.957],[-88.016,37.962],[-88.012,37.97],[-88.026,38.009],[-88.008,38.029],[-88.034,38.032],[-88.042,38.046],[-88.001,38.052],[-87.967,38.067],[-87.957,38.086],[-87.961,38.1],[-88.005,38.084],[-88.017,38.096],[-88.007,38.106],[-87.975,38.11],[-87.971,38.128]]]}},{"type":"Feature","properties":{"fips":"17195"},"geometry":{"type":"Polygon","coordinates":[[[-89.747,41.584],[-89.631,41.585],[-89.629,41.93],[-90.152,41.929],[-90.154,41.907],[-90.184,41.836],[-90.182,41.807],[-90.242,41.783],[-90.247,41.763],[-90.237,41.763],[-90.248,41.747],[-90.237,41.741],[-90.234,41.725],[-90.246,41.704],[-90.226,41.687],[-90.236,41.679],[-90.19,41.663],[-90.161,41.644],[-90.174,41.64],[-90.16,41.63],[-90.165,41.596],[-90.186,41.585],[-89.747,41.584]]]}},{"type":"Feature","properties":{"fips":"17197"},"geometry":{"type":"Polygon","coordinates":[[[-87.526,41.385],[-87.526,41.47],[-87.79,41.47],[-87.793,41.559],[-87.909,41.557],[-87.912,41.644],[-88.028,41.642],[-88.03,41.729],[-88.261,41.725],[-88.244,41.202],[-88.012,41.206],[-88.014,41.292],[-87.527,41.298],[-87.526,41.385]]]}},{"type":"Feature","properties":{"fips":"17199"},"geometry":{"type":"Polygon","coordinates":[[[-88.708,37.687],[-88.707,37.863],[-89.151,37.862],[-89.154,37.6],[-88.709,37.599],[-88.708,37.687]]]}},{"type":"Feature","properties":{"fips":"17201"},"geometry":{"type":"Polygon","coordinates":[[[-89.157,42.497],[-89.401,42.501],[-89.396,42.202],[-89.173,42.204],[-89.173,42.15],[-88.94,42.152],[-88.94,42.495],[-89.157,42.497]]]}},{"type":"Feature","properties":{"fips":"17203"},"geometry":{"type":"Polygon","coordinates":[[[-89.045,40.664],[-88.985,40.665],[-88.987,40.752],[-88.929,40.753],[-88.931,40.928],[-89.473,40.921],[-89.498,40.874],[-89.527,40.853],[-89.564,40.783],[-89.553,40.748],[-89.33,40.748],[-89.327,40.616],[-89.27,40.616],[-89.269,40.594],[-89.134,40.597],[-89.134,40.611],[-89.101,40.612],[-89.102,40.625],[-89.044,40.627],[-89.045,40.664]]]}},{"type":"Feature","properties":{"fips":"26001"},"geometry":{"type":"Polygon","coordinates":[[[-83.401,44.512],[-82.33,44.513],[-82.409,44.858],[-82.5,44.858],[-82.5,44.864],[-82.75,44.856],[-83.888,44.856],[-83.887,44.509],[-83.401,44.512]]]}},{"type":"Feature","properties":{"fips":"26003"},"geometry":{"type":"Polygon","coordinates":[[[-86.678,46.159],[-86.616,46.159],[-86.615,46.333],[-86.365,46.332],[-86.365,46.506],[-85.865,46.505],[-85.855,47.305],[-86.0,47.367],[-86.0,47.362],[-86.25,47.478],[-86.5,47.568],[-87.113,47.818],[-87.116,46.159],[-86.678,46.159]]]}},{"type":"Feature","properties":{"fips":"26005"},"geometry":{"type":"Polygon","coordinates":[[[-86.012,42.419],[-85.543,42.421],[-85.546,42.768],[-87.059,42.765],[-87.02,42.494],[-87.04,42.417],[-86.012,42.419]]]}},{"type":"Feature","properties":{"fips":"26007"},"geometry":{"type":"Polygon","coordinates":[[[-83.375,45.207],[-83.881,45.202],[-83.88,45.031],[-83.89,45.03],[-83.888,44.856],[-82.75,44.856],[-82.5,44.864],[-82.5,44.858],[-82.409,44.858],[-82.491,45.208],[-83.375,45.207]]]}},{"type":"Feature","properties":{"fips":"26009"},"geometry":{"type":"Polygon","coordinates":[[[-85.091,44.859],[-84.847,44.858],[-84.857,45.117],[-85.224,45.118],[-85.223,45.206],[-85.459,45.207],[-85.469,45.131],[-85.481,45.12],[-85.433,45.022],[-85.428,44.965],[-85.474,44.859],[-85.382,44.86],[-85.374,44.828],[-85.345,44.828],[-85.333,44.812],[-85.316,44.822],[-85.328,44.851],[-85.292,44.86],[-85.091,44.859]]]}},{"type":"Feature","properties":{"fips":"26011"},"geometry":{"type":"Polygon","coordinates":[[[-83.565,44.164],[-84.166,44.162],[-84.166,43.997],[-84.045,43.997],[-84.045,43.911],[-83.908,43.91],[-83.709,43.834],[-83.185,44.168],[-83.565,44.164]]]}},{"type":"Feature","properties":{"fips":"26013"},"geometry":{"type":"Polygon","coordinates":[[[-88.366,46.42],[-88.117,46.42],[-88.116,46.678],[-87.992,46.679],[-87.991,46.765],[-88.045,46.765],[-88.044,47.044],[-88.449,46.939],[-88.552,46.939],[-88.552,46.852],[-88.679,46.852],[-88.679,46.42],[-88.366,46.42]]]}},{"type":"Feature","properties":{"fips":"26015"},"geometry":{"type":"Polygon","coordinates":[[[-85.19,42.421],[-85.072,42.421],[-85.074,42.771],[-85.546,42.768],[-85.543,42.421],[-85.19,42.421]]]}},{"type":"Feature","properties":{"fips":"26017"},"geometry":{"type":"Polygon","coordinates":[[[-84.167,43.615],[-84.168,43.569],[-84.05,43.567],[-84.051,43.524],[-83.817,43.522],[-83.818,43.479],[-83.699,43.479],[-83.708,43.829],[-83.714,43.831],[-83.709,43.834],[-83.908,43.91],[-84.045,43.911],[-84.045,43.997],[-84.166,43.997],[-84.167,43.615]]]}},{"type":"Feature","properties":{"fips":"26019"},"geometry":{"type":"Polygon","coordinates":[[[-85.937,44.778],[-86.735,44.773],[-86.847,44.519],[-85.818,44.513],[-85.815,44.775],[-85.937,44.778]]]}},{"type":"Feature","properties":{"fips":"26021"},"geometry":{"type":"Polygon","coordinates":[[[-86.225,41.841],[-86.224,42.243],[-87.088,42.235],[-87.208,41.761],[-86.226,41.76],[-86.225,41.841]]]}},{"type":"Feature","properties":{"fips":"26023"},"geometry":{"type":"Polygon","coordinates":[[[-84.942,42.073],[-85.294,42.072],[-85.292,41.76],[-84.825,41.76],[-84.826,42.072],[-84.942,42.073]]]}},{"type":"Feature","properties":{"fips":"26025"},"geometry":{"type":"Polygon","coordinates":[[[-84.717,42.247],[-84.718,42.422],[-85.3,42.42],[-85.294,42.072],[-84.71,42.07],[-84.717,42.247]]]}},{"type":"Feature","properties":{"fips":"26027"},"geometry":{"type":"Polygon","coordinates":[[[-85.992,42.07],[-86.223,42.071],[-86.226,41.76],[-85.785,41.76],[-85.79,41.766],[-85.786,41.777],[-85.76,41.799],[-85.763,42.069],[-85.992,42.07]]]}},{"type":"Feature","properties":{"fips":"26029"},"geometry":{"type":"Polygon","coordinates":[[[-84.734,45.202],[-84.733,45.289],[-84.965,45.292],[-84.965,45.271],[-85.003,45.273],[-85.019,45.29],[-85.015,45.296],[-85.023,45.31],[-85.046,45.335],[-85.097,45.336],[-85.102,45.397],[-85.208,45.5],[-85.283,45.55],[-85.306,45.594],[-85.308,45.625],[-85.276,45.698],[-85.219,45.79],[-85.221,45.834],[-85.24,45.871],[-85.57,45.883],[-85.759,45.851],[-85.873,45.818],[-85.856,45.578],[-85.766,45.556],[-85.68,45.507],[-85.625,45.455],[-85.488,45.281],[-85.469,45.25],[-85.459,45.207],[-85.223,45.206],[-85.224,45.118],[-84.735,45.115],[-84.734,45.202]]]}},{"type":"Feature","properties":{"fips":"26031"},"geometry":{"type":"Polygon","coordinates":[[[-84.733,45.81],[-84.734,45.202],[-84.247,45.199],[-84.252,45.626],[-84.204,45.626],[-84.201,45.752],[-84.366,45.696],[-84.447,45.695],[-84.527,45.717],[-84.651,45.792],[-84.733,45.81]]]}},{"type":"Feature","properties":{"fips":"26033"},"geometry":{"type":"Polygon","coordinates":[[[-85.236,46.875],[-85.238,46.245],[-85.113,46.246],[-85.113,46.158],[-84.364,46.158],[-84.363,46.072],[-84.239,46.071],[-84.239,45.985],[-84.114,45.985],[-84.123,45.778],[-83.637,45.774],[-83.434,45.999],[-83.571,46.106],[-83.655,46.122],[-83.76,46.103],[-83.826,46.119],[-83.903,46.061],[-83.955,46.057],[-83.976,46.103],[-84.006,46.118],[-84.006,46.15],[-84.077,46.188],[-84.108,46.241],[-84.098,46.257],[-84.116,46.268],[-84.12,46.315],[-84.106,46.322],[-84.139,46.372],[-84.146,46.419],[-84.111,46.504],[-84.129,46.53],[-84.177,46.527],[-84.194,46.54],[-84.226,46.534],[-84.255,46.501],[-84.276,46.493],[-84.342,46.508],[-84.42,46.501],[-84.445,46.489],[-84.476,46.453],[-84.557,46.461],[-84.763,46.634],[-84.859,46.889],[-85.234,47.048],[-85.236,46.875]]]}},{"type":"Feature","properties":{"fips":"26035"},"geometry":{"type":"Polygon","coordinates":[[[-84.783,43.815],[-84.606,43.815],[-84.608,44.16],[-85.087,44.164],[-85.089,43.814],[-84.783,43.815]]]}},{"type":"Feature","properties":{"fips":"26037"},"geometry":{"type":"Polygon","coordinates":[[[-84.838,43.033],[-84.837,42.77],[-84.364,42.77],[-84.368,43.118],[-84.837,43.119],[-84.838,43.033]]]}},{"type":"Feature","properties":{"fips":"26039"},"geometry":{"type":"Polygon","coordinates":[[[-84.851,44.533],[-84.851,44.511],[-84.371,44.507],[-84.372,44.855],[-84.847,44.858],[-84.851,44.533]]]}},{"type":"Feature","properties":{"fips":"26041"},"geometry":{"type":"Polygon","coordinates":[[[-87.368,45.941],[-87.368,45.899],[-87.325,45.899],[-87.328,45.551],[-87.129,45.55],[-87.128,45.409],[-87.101,45.444],[-86.754,45.444],[-86.464,45.325],[-86.459,45.896],[-86.49,45.896],[-86.49,46.158],[-87.242,46.159],[-87.243,45.985],[-87.368,45.985],[-87.368,45.941]]]}},{"type":"Feature","properties":{"fips":"26043"},"geometry":{"type":"Polygon","coordinates":[[[-87.697,45.899],[-87.617,45.899],[-87.616,46.247],[-88.117,46.247],[-88.117,45.922],[-88.095,45.916],[-88.107,45.901],[-88.101,45.882],[-88.07,45.873],[-88.135,45.822],[-88.13,45.81],[-88.108,45.803],[-88.095,45.786],[-88.071,45.78],[-87.991,45.795],[-87.981,45.777],[-87.986,45.77],[-87.961,45.758],[-87.877,45.754],[-87.847,45.722],[-87.697,45.723],[-87.697,45.899]]]}},{"type":"Feature","properties":{"fips":"26045"},"geometry":{"type":"Polygon","coordinates":[[[-84.718,42.422],[-84.6,42.422],[-84.603,42.77],[-85.074,42.771],[-85.072,42.421],[-84.718,42.422]]]}},{"type":"Feature","properties":{"fips":"26047"},"geometry":{"type":"Polygon","coordinates":[[[-84.965,45.292],[-84.733,45.289],[-84.733,45.81],[-84.943,45.843],[-85.042,45.849],[-85.125,45.866],[-85.24,45.871],[-85.221,45.834],[-85.218,45.794],[-85.298,45.655],[-85.308,45.619],[-85.301,45.58],[-85.283,45.55],[-85.208,45.5],[-85.102,45.397],[-85.097,45.336],[-85.046,45.335],[-85.002,45.272],[-84.965,45.271],[-84.965,45.292]]]}},{"type":"Feature","properties":{"fips":"26049"},"geometry":{"type":"Polygon","coordinates":[[[-83.571,42.873],[-83.453,42.876],[-83.461,43.223],[-83.932,43.22],[-83.923,42.781],[-83.686,42.783],[-83.689,42.871],[-83.571,42.873]]]}},{"type":"Feature","properties":{"fips":"26051"},"geometry":{"type":"Polygon","coordinates":[[[-84.367,43.828],[-84.167,43.826],[-84.166,44.162],[-84.608,44.16],[-84.606,43.815],[-84.367,43.814],[-84.367,43.828]]]}},{"type":"Feature","properties":{"fips":"26053"},"geometry":{"type":"Polygon","coordinates":[[[-89.888,46.765],[-90.0,46.766],[-90.0,47.0],[-90.112,47.042],[-90.418,46.566],[-90.393,46.532],[-90.351,46.54],[-90.339,46.549],[-90.344,46.552],[-90.332,46.553],[-90.309,46.537],[-90.317,46.517],[-90.277,46.524],[-90.273,46.505],[-90.231,46.51],[-90.231,46.502],[-90.217,46.502],[-90.204,46.478],[-90.189,46.469],[-90.191,46.46],[-90.178,46.457],[-90.178,46.44],[-90.167,46.442],[-90.158,46.409],[-90.119,46.359],[-90.121,46.337],[-89.092,46.138],[-88.991,46.097],[-88.991,46.332],[-89.366,46.333],[-89.365,46.506],[-89.741,46.506],[-89.74,46.592],[-89.864,46.593],[-89.864,46.765],[-89.888,46.765]]]}},{"type":"Feature","properties":{"fips":"26055"},"geometry":{"type":"Polygon","coordinates":[[[-85.641,44.775],[-85.815,44.775],[-85.818,44.513],[-85.334,44.512],[-85.333,44.812],[-85.345,44.828],[-85.374,44.828],[-85.382,44.86],[-85.474,44.859],[-85.428,44.965],[-85.433,45.022],[-85.481,45.12],[-85.55,45.051],[-85.561,44.955],[-85.57,44.93],[-85.595,44.901],[-85.591,44.875],[-85.614,44.827],[-85.612,44.785],[-85.618,44.775],[-85.641,44.775]]]}},{"type":"Feature","properties":{"fips":"26057"},"geometry":{"type":"Polygon","coordinates":[[[-84.608,43.466],[-84.846,43.466],[-84.846,43.292],[-84.835,43.292],[-84.837,43.119],[-84.368,43.118],[-84.37,43.466],[-84.608,43.466]]]}},{"type":"Feature","properties":{"fips":"26059"},"geometry":{"type":"Polygon","coordinates":[[[-84.709,41.699],[-84.36,41.707],[-84.363,42.073],[-84.826,42.072],[-84.825,41.76],[-84.806,41.76],[-84.806,41.696],[-84.709,41.699]]]}},{"type":"Feature","properties":{"fips":"26061"},"geometry":{"type":"Polygon","coordinates":[[[-88.552,46.939],[-88.449,46.939],[-88.044,47.044],[-88.046,47.2],[-88.298,47.2],[-88.299,47.286],[-88.513,47.286],[-88.949,47.477],[-88.933,47.031],[-88.932,46.765],[-88.864,46.765],[-88.864,46.679],[-88.99,46.68],[-88.991,46.42],[-88.679,46.42],[-88.679,46.852],[-88.552,46.852],[-88.552,46.939]]]}},{"type":"Feature","properties":{"fips":"26063"},"geometry":{"type":"Polygon","coordinates":[[[-82.758,43.686],[-82.146,43.696],[-82.25,44.159],[-83.185,44.168],[-83.714,43.831],[-83.467,43.729],[-83.467,43.668],[-82.758,43.686]]]}},{"type":"Feature","properties":{"fips":"26065"},"geometry":{"type":"Polygon","coordinates":[[[-84.15,42.685],[-84.158,42.777],[-84.603,42.77],[-84.6,42.422],[-84.141,42.425],[-84.15,42.685]]]}},{"type":"Feature","properties":{"fips":"26067"},"geometry":{"type":"Polygon","coordinates":[[[-84.956,42.77],[-84.837,42.77],[-84.837,43.119],[-85.313,43.119],[-85.31,42.77],[-84.956,42.77]]]}},{"type":"Feature","properties":{"fips":"26069"},"geometry":{"type":"Polygon","coordinates":[[[-83.766,44.51],[-83.887,44.509],[-83.884,44.162],[-83.0,44.171],[-82.25,44.159],[-82.33,44.513],[-83.766,44.51]]]}},{"type":"Feature","properties":{"fips":"26071"},"geometry":{"type":"Polygon","coordinates":[[[-88.117,46.333],[-88.117,46.42],[-88.991,46.42],[-88.991,46.097],[-88.816,46.021],[-88.796,46.024],[-88.796,46.034],[-88.779,46.032],[-88.78,46.015],[-88.77,46.019],[-88.771,46.026],[-88.759,46.02],[-88.739,46.027],[-88.721,46.022],[-88.718,46.013],[-88.679,46.014],[-88.663,45.993],[-88.671,45.989],[-88.616,45.988],[-88.601,46.018],[-88.588,46.005],[-88.566,46.016],[-88.515,46.02],[-88.489,45.991],[-88.459,46.0],[-88.416,45.975],[-88.381,45.992],[-88.33,45.966],[-88.327,45.955],[-88.32,45.964],[-88.294,45.951],[-88.247,45.964],[-88.237,45.948],[-88.21,45.944],[-88.192,45.953],[-88.117,45.921],[-88.117,46.333]]]}},{"type":"Feature","properties":{"fips":"26073"},"geometry":{"type":"Polygon","coordinates":[[[-84.608,43.641],[-84.606,43.815],[-85.089,43.814],[-85.085,43.466],[-84.608,43.466],[-84.608,43.641]]]}},{"type":"Feature","properties":{"fips":"26075"},"geometry":{"type":"Polygon","coordinates":[[[-84.363,42.073],[-84.132,42.072],[-84.131,42.425],[-84.718,42.422],[-84.71,42.07],[-84.363,42.073]]]}},{"type":"Feature","properties":{"fips":"26077"},"geometry":{"type":"Polygon","coordinates":[[[-85.529,42.071],[-85.294,42.072],[-85.299,42.42],[-85.765,42.421],[-85.763,42.069],[-85.529,42.071]]]}},{"type":"Feature","properties":{"fips":"26079"},"geometry":{"type":"Polygon","coordinates":[[[-85.333,44.799],[-85.334,44.512],[-84.851,44.511],[-84.847,44.858],[-85.292,44.86],[-85.328,44.851],[-85.316,44.822],[-85.333,44.813],[-85.333,44.799]]]}},{"type":"Feature","properties":{"fips":"26081"},"geometry":{"type":"Polygon","coordinates":[[[-85.312,42.944],[-85.312,43.294],[-85.79,43.293],[-85.782,42.768],[-85.31,42.77],[-85.312,42.944]]]}},{"type":"Feature","properties":{"fips":"26083"},"geometry":{"type":"Polygon","coordinates":[[[-88.308,48.283],[-88.37,48.306],[-88.677,48.245],[-89.338,47.974],[-89.483,48.014],[-89.681,47.715],[-89.0,47.5],[-88.513,47.286],[-88.299,47.286],[-88.298,47.2],[-88.046,47.2],[-88.047,47.219],[-87.112,47.223],[-87.113,47.818],[-87.625,48.021],[-88.0,48.156],[-88.0,48.164],[-88.308,48.283]]]}},{"type":"Feature","properties":{"fips":"26085"},"geometry":{"type":"Polygon","coordinates":[[[-86.044,44.167],[-86.038,43.816],[-85.562,43.815],[-85.565,44.165],[-86.044,44.167]]]}},{"type":"Feature","properties":{"fips":"26087"},"geometry":{"type":"Polygon","coordinates":[[[-83.103,42.889],[-82.984,42.894],[-83.0,43.285],[-83.119,43.284],[-83.12,43.327],[-83.354,43.322],[-83.352,43.235],[-83.461,43.233],[-83.453,42.88],[-83.103,42.889]]]}},{"type":"Feature","properties":{"fips":"26089"},"geometry":{"type":"Polygon","coordinates":[[[-85.659,44.775],[-85.615,44.779],[-85.614,44.829],[-85.591,44.877],[-85.595,44.901],[-85.563,44.948],[-85.55,45.051],[-85.469,45.131],[-85.459,45.196],[-85.476,45.264],[-85.625,45.455],[-85.68,45.507],[-85.736,45.542],[-85.787,45.563],[-85.856,45.578],[-86.461,45.584],[-86.464,45.325],[-86.25,45.236],[-86.5,45.081],[-86.686,44.881],[-86.735,44.773],[-85.659,44.775]]]}},{"type":"Feature","properties":{"fips":"26091"},"geometry":{"type":"Polygon","coordinates":[[[-84.008,42.078],[-84.363,42.073],[-84.36,41.707],[-83.763,41.724],[-83.774,42.082],[-84.008,42.078]]]}},{"type":"Feature","properties":{"fips":"26093"},"geometry":{"type":"Polygon","coordinates":[[[-83.787,42.429],[-83.665,42.431],[-83.686,42.783],[-84.158,42.777],[-84.142,42.547],[-84.141,42.425],[-83.787,42.429]]]}},{"type":"Feature","properties":{"fips":"26095"},"geometry":{"type":"Polygon","coordinates":[[[-85.613,46.245],[-85.238,46.245],[-85.234,47.048],[-85.855,47.305],[-85.865,46.245],[-85.613,46.245]]]}},{"type":"Feature","properties":{"fips":"26097"},"geometry":{"type":"Polygon","coordinates":[[[-84.114,45.978],[-84.114,45.985],[-84.239,45.985],[-84.239,46.071],[-84.363,46.072],[-84.364,46.158],[-85.113,46.158],[-85.113,46.246],[-85.865,46.245],[-85.868,45.82],[-85.759,45.851],[-85.57,45.883],[-85.125,45.866],[-85.042,45.849],[-84.943,45.843],[-84.766,45.811],[-84.695,45.806],[-84.631,45.783],[-84.569,45.738],[-84.497,45.704],[-84.437,45.694],[-84.375,45.694],[-84.123,45.778],[-84.114,45.978]]]}},{"type":"Feature","properties":{"fips":"26099"},"geometry":{"type":"Polygon","coordinates":[[[-82.929,42.451],[-82.75,42.451],[-82.723,42.478],[-82.726,42.625],[-82.706,42.686],[-82.729,42.706],[-82.739,42.898],[-83.103,42.889],[-83.083,42.447],[-82.929,42.451]]]}},{"type":"Feature","properties":{"fips":"26101"},"geometry":{"type":"Polygon","coordinates":[[[-86.181,44.518],[-86.847,44.519],[-86.855,44.5],[-86.848,44.5],[-86.988,44.183],[-86.378,44.179],[-85.821,44.164],[-85.818,44.513],[-86.181,44.518]]]}},{"type":"Feature","properties":{"fips":"26103"},"geometry":{"type":"Polygon","coordinates":[[[-87.242,46.13],[-87.242,46.159],[-87.116,46.159],[-87.112,47.223],[-88.047,47.219],[-88.045,46.765],[-87.991,46.765],[-87.992,46.679],[-88.116,46.678],[-88.117,46.247],[-87.616,46.247],[-87.617,45.986],[-87.243,45.985],[-87.242,46.13]]]}},{"type":"Feature","properties":{"fips":"26105"},"geometry":{"type":"Polygon","coordinates":[[[-86.04,43.99],[-86.044,44.167],[-86.378,44.179],[-86.988,44.183],[-87.013,44.132],[-87.093,43.82],[-86.038,43.816],[-86.04,43.99]]]}},{"type":"Feature","properties":{"fips":"26107"},"geometry":{"type":"Polygon","coordinates":[[[-85.324,43.814],[-85.562,43.815],[-85.562,43.468],[-85.085,43.466],[-85.089,43.814],[-85.324,43.814]]]}},{"type":"Feature","properties":{"fips":"26109"},"geometry":{"type":"Polygon","coordinates":[[[-87.327,45.638],[-87.325,45.899],[-87.368,45.899],[-87.368,45.985],[-87.617,45.986],[-87.617,45.899],[-87.697,45.899],[-87.697,45.723],[-87.847,45.723],[-87.81,45.71],[-87.809,45.7],[-87.782,45.683],[-87.782,45.673],[-87.824,45.662],[-87.824,45.648],[-87.796,45.619],[-87.781,45.615],[-87.775,45.602],[-87.792,45.563],[-87.832,45.568],[-87.833,45.559],[-87.803,45.538],[-87.802,45.513],[-87.793,45.5],[-87.813,45.464],[-87.862,45.434],[-87.849,45.404],[-87.875,45.379],[-87.871,45.372],[-87.888,45.354],[-87.87,45.356],[-87.872,45.367],[-87.85,45.34],[-87.833,45.352],[-87.754,45.349],[-87.7,45.388],[-87.675,45.382],[-87.657,45.369],[-87.648,45.34],[-87.687,45.298],[-87.71,45.259],[-87.711,45.24],[-87.725,45.232],[-87.726,45.209],[-87.742,45.198],[-87.736,45.172],[-87.684,45.144],[-87.66,45.108],[-87.443,45.076],[-87.406,45.202],[-87.315,45.241],[-87.171,45.353],[-87.128,45.409],[-87.129,45.55],[-87.328,45.551],[-87.327,45.638]]]}},{"type":"Feature","properties":{"fips":"26111"},"geometry":{"type":"Polygon","coordinates":[[[-84.167,43.637],[-84.167,43.826],[-84.367,43.828],[-84.367,43.814],[-84.606,43.815],[-84.608,43.466],[-84.37,43.466],[-84.37,43.482],[-84.171,43.482],[-84.167,43.637]]]}},{"type":"Feature","properties":{"fips":"26113"},"geometry":{"type":"Polygon","coordinates":[[[-85.338,44.427],[-85.335,44.165],[-84.852,44.161],[-84.851,44.511],[-85.334,44.512],[-85.338,44.427]]]}},{"type":"Feature","properties":{"fips":"26115"},"geometry":{"type":"Polygon","coordinates":[[[-83.286,42.089],[-83.419,42.094],[-83.421,42.088],[-83.774,42.082],[-83.763,41.724],[-83.416,41.734],[-83.112,41.959],[-83.144,42.028],[-83.185,42.029],[-83.23,42.049],[-83.229,42.055],[-83.255,42.064],[-83.258,42.074],[-83.268,42.069],[-83.286,42.089]]]}},{"type":"Feature","properties":{"fips":"26117"},"geometry":{"type":"Polygon","coordinates":[[[-84.837,43.181],[-84.835,43.292],[-84.846,43.292],[-84.846,43.466],[-85.562,43.468],[-85.563,43.294],[-85.312,43.294],[-85.313,43.119],[-84.837,43.119],[-84.837,43.181]]]}},{"type":"Feature","properties":{"fips":"26119"},"geometry":{"type":"Polygon","coordinates":[[[-84.132,44.855],[-83.888,44.857],[-83.89,45.03],[-83.88,45.031],[-83.881,45.202],[-84.367,45.199],[-84.372,44.855],[-84.132,44.855]]]}},{"type":"Feature","properties":{"fips":"26121"},"geometry":{"type":"Polygon","coordinates":[[[-85.908,43.206],[-85.791,43.205],[-85.79,43.293],[-86.039,43.294],[-86.039,43.467],[-87.14,43.471],[-87.147,43.38],[-87.108,43.118],[-85.907,43.119],[-85.908,43.206]]]}},{"type":"Feature","properties":{"fips":"26123"},"geometry":{"type":"Polygon","coordinates":[[[-85.801,43.293],[-85.563,43.294],[-85.562,43.815],[-86.038,43.816],[-86.039,43.294],[-85.801,43.293]]]}},{"type":"Feature","properties":{"fips":"26125"},"geometry":{"type":"Polygon","coordinates":[[[-83.317,42.442],[-83.083,42.447],[-83.103,42.889],[-83.689,42.871],[-83.665,42.431],[-83.317,42.442]]]}},{"type":"Feature","properties":{"fips":"26127"},"geometry":{"type":"Polygon","coordinates":[[[-86.04,43.554],[-86.038,43.816],[-87.093,43.82],[-87.125,43.67],[-87.14,43.471],[-86.039,43.467],[-86.04,43.554]]]}},{"type":"Feature","properties":{"fips":"26129"},"geometry":{"type":"Polygon","coordinates":[[[-84.005,44.162],[-83.884,44.162],[-83.887,44.509],[-84.371,44.507],[-84.368,44.161],[-84.005,44.162]]]}},{"type":"Feature","properties":{"fips":"26131"},"geometry":{"type":"Polygon","coordinates":[[[-88.99,46.68],[-88.864,46.679],[-88.864,46.765],[-88.932,46.765],[-88.933,47.031],[-88.949,47.477],[-89.0,47.5],[-89.681,47.715],[-90.112,47.042],[-90.0,47.0],[-90.0,46.766],[-89.864,46.765],[-89.864,46.593],[-89.74,46.592],[-89.741,46.506],[-89.365,46.506],[-89.366,46.333],[-88.991,46.332],[-88.99,46.68]]]}},{"type":"Feature","properties":{"fips":"26133"},"geometry":{"type":"Polygon","coordinates":[[[-85.565,44.165],[-85.562,43.815],[-85.089,43.814],[-85.087,44.164],[-85.565,44.165]]]}},{"type":"Feature","properties":{"fips":"26135"},"geometry":{"type":"Polygon","coordinates":[[[-84.128,44.508],[-83.887,44.509],[-83.888,44.857],[-84.372,44.855],[-84.371,44.507],[-84.128,44.508]]]}},{"type":"Feature","properties":{"fips":"26137"},"geometry":{"type":"Polygon","coordinates":[[[-84.368,45.113],[-84.367,45.199],[-84.734,45.202],[-84.735,45.115],[-84.857,45.117],[-84.847,44.858],[-84.372,44.855],[-84.368,45.113]]]}},{"type":"Feature","properties":{"fips":"26139"},"geometry":{"type":"Polygon","coordinates":[[[-85.908,43.206],[-85.907,43.119],[-87.108,43.118],[-87.059,42.765],[-85.782,42.768],[-85.791,43.205],[-85.908,43.206]]]}},{"type":"Feature","properties":{"fips":"26141"},"geometry":{"type":"Polygon","coordinates":[[[-83.514,45.207],[-82.491,45.208],[-82.521,45.336],[-83.484,45.772],[-84.123,45.778],[-84.201,45.752],[-84.204,45.626],[-84.252,45.626],[-84.247,45.199],[-83.514,45.207]]]}},{"type":"Feature","properties":{"fips":"26143"},"geometry":{"type":"Polygon","coordinates":[[[-84.369,44.247],[-84.371,44.507],[-84.851,44.511],[-84.852,44.161],[-84.368,44.161],[-84.369,44.247]]]}},{"type":"Feature","properties":{"fips":"26145"},"geometry":{"type":"Polygon","coordinates":[[[-83.699,43.393],[-83.699,43.479],[-83.818,43.479],[-83.817,43.522],[-84.051,43.524],[-84.05,43.567],[-84.168,43.569],[-84.171,43.482],[-84.37,43.482],[-84.368,43.128],[-83.929,43.133],[-83.932,43.22],[-83.696,43.221],[-83.699,43.393]]]}},{"type":"Feature","properties":{"fips":"26147"},"geometry":{"type":"Polygon","coordinates":[[[-82.497,42.696],[-82.468,42.762],[-82.483,42.809],[-82.469,42.852],[-82.469,42.889],[-82.456,42.927],[-82.417,42.966],[-82.413,42.977],[-82.424,42.997],[-82.411,43.011],[-82.334,43.17],[-82.996,43.154],[-82.984,42.894],[-82.739,42.898],[-82.729,42.706],[-82.706,42.686],[-82.726,42.625],[-82.723,42.478],[-82.654,42.547],[-82.634,42.557],[-82.59,42.551],[-82.523,42.607],[-82.497,42.696]]]}},{"type":"Feature","properties":{"fips":"26149"},"geometry":{"type":"Polygon","coordinates":[[[-85.431,41.76],[-85.292,41.76],[-85.294,42.072],[-85.763,42.069],[-85.76,41.799],[-85.786,41.777],[-85.79,41.766],[-85.784,41.76],[-85.791,41.759],[-85.431,41.76]]]}},{"type":"Feature","properties":{"fips":"26151"},"geometry":{"type":"Polygon","coordinates":[[[-82.643,43.164],[-82.334,43.17],[-82.123,43.591],[-82.146,43.696],[-83.118,43.675],[-83.104,43.327],[-83.12,43.327],[-83.119,43.284],[-83.0,43.285],[-82.996,43.154],[-82.643,43.164]]]}},{"type":"Feature","properties":{"fips":"26153"},"geometry":{"type":"Polygon","coordinates":[[[-85.865,46.158],[-85.865,46.505],[-86.365,46.506],[-86.365,46.332],[-86.615,46.333],[-86.616,46.159],[-86.49,46.158],[-86.49,45.896],[-86.459,45.896],[-86.461,45.584],[-85.856,45.578],[-85.873,45.818],[-85.865,46.158]]]}},{"type":"Feature","properties":{"fips":"26155"},"geometry":{"type":"Polygon","coordinates":[[[-84.158,42.777],[-83.923,42.781],[-83.929,43.133],[-84.368,43.128],[-84.364,42.776],[-84.158,42.777]]]}},{"type":"Feature","properties":{"fips":"26157"},"geometry":{"type":"Polygon","coordinates":[[[-83.461,43.233],[-83.352,43.235],[-83.354,43.322],[-83.104,43.327],[-83.118,43.675],[-83.467,43.668],[-83.467,43.729],[-83.708,43.829],[-83.696,43.221],[-83.461,43.223],[-83.461,43.233]]]}},{"type":"Feature","properties":{"fips":"26159"},"geometry":{"type":"Polygon","coordinates":[[[-85.766,42.332],[-85.765,42.421],[-87.04,42.417],[-87.088,42.235],[-86.224,42.243],[-86.223,42.071],[-85.763,42.069],[-85.766,42.332]]]}},{"type":"Feature","properties":{"fips":"26161"},"geometry":{"type":"Polygon","coordinates":[[[-83.774,42.082],[-83.539,42.086],[-83.552,42.435],[-84.131,42.425],[-84.132,42.072],[-83.774,42.082]]]}},{"type":"Feature","properties":{"fips":"26163"},"geometry":{"type":"Polygon","coordinates":[[[-82.899,42.358],[-82.83,42.373],[-82.75,42.451],[-83.552,42.435],[-83.539,42.086],[-83.295,42.094],[-83.268,42.069],[-83.258,42.074],[-83.255,42.064],[-83.234,42.059],[-83.23,42.049],[-83.199,42.035],[-83.144,42.028],[-83.149,42.04],[-83.122,42.125],[-83.134,42.175],[-83.128,42.239],[-83.098,42.29],[-83.064,42.317],[-82.899,42.358]]]}},{"type":"Feature","properties":{"fips":"26165"},"geometry":{"type":"Polygon","coordinates":[[[-85.577,44.165],[-85.335,44.165],[-85.334,44.512],[-85.818,44.513],[-85.821,44.164],[-85.577,44.165]]]}},{"type":"Feature","properties":{"fips":"55001"},"geometry":{"type":"Polygon","coordinates":[[[-89.787,43.663],[-89.785,43.641],[-89.6,43.643],[-89.598,44.246],[-89.903,44.249],[-89.898,44.228],[-89.908,44.229],[-89.908,44.221],[-89.925,44.214],[-89.905,44.202],[-89.927,44.194],[-89.904,44.191],[-89.903,44.179],[-89.924,44.177],[-89.923,44.155],[-89.929,44.15],[-89.942,44.163],[-89.97,44.167],[-89.974,44.135],[-89.985,44.129],[-89.976,44.124],[-90.007,44.122],[-90.004,44.103],[-90.026,44.092],[-90.018,44.046],[-89.998,44.023],[-90.006,44.008],[-89.968,43.992],[-89.955,43.955],[-89.952,43.924],[-89.984,43.912],[-89.963,43.883],[-89.963,43.866],[-89.922,43.838],[-89.913,43.818],[-89.851,43.769],[-89.823,43.698],[-89.787,43.663]]]}},{"type":"Feature","properties":{"fips":"55003"},"geometry":{"type":"Polygon","coordinates":[[[-90.488,45.982],[-90.302,45.981],[-90.303,46.155],[-90.426,46.154],[-90.426,46.24],[-90.552,46.241],[-90.55,46.584],[-90.449,46.797],[-90.27,46.798],[-89.957,47.291],[-90.655,47.31],[-90.867,47.211],[-90.766,46.978],[-90.779,46.943],[-90.733,46.89],[-90.767,46.86],[-90.78,46.815],[-90.811,46.79],[-90.837,46.746],[-90.822,46.694],[-90.829,46.665],[-90.927,46.585],[-90.925,45.981],[-90.488,45.982]]]}},{"type":"Feature","properties":{"fips":"55005"},"geometry":{"type":"Polygon","coordinates":[[[-91.786,45.639],[-92.155,45.64],[-92.156,45.21],[-91.542,45.207],[-91.54,45.638],[-91.786,45.639]]]}},{"type":"Feature","properties":{"fips":"55007"},"geometry":{"type":"Polygon","coordinates":[[[-90.835,46.659],[-90.822,46.694],[-90.837,46.746],[-90.811,46.79],[-90.78,46.815],[-90.767,46.86],[-90.733,46.892],[-90.779,46.943],[-90.766,46.978],[-90.867,47.211],[-91.549,46.893],[-91.551,46.157],[-90.925,46.155],[-90.927,46.585],[-90.835,46.659]]]}},{"type":"Feature","properties":{"fips":"55009"},"geometry":{"type":"Polygon","coordinates":[[[-87.888,44.328],[-87.766,44.327],[-87.758,44.677],[-88.231,44.672],[-88.231,44.68],[-88.253,44.68],[-88.252,44.66],[-88.243,44.661],[-88.245,44.585],[-88.19,44.585],[-88.193,44.242],[-87.888,44.24],[-87.888,44.328]]]}},{"type":"Feature","properties":{"fips":"55011"},"geometry":{"type":"Polygon","coordinates":[[[-92.084,44.41],[-91.97,44.366],[-91.926,44.334],[-91.914,44.311],[-91.925,44.292],[-91.896,44.275],[-91.887,44.252],[-91.893,44.231],[-91.875,44.201],[-91.829,44.178],[-91.808,44.159],[-91.752,44.135],[-91.722,44.13],[-91.711,44.12],[-91.707,44.104],[-91.682,44.097],[-91.648,44.064],[-91.61,44.049],[-91.592,44.031],[-91.556,44.029],[-91.571,44.038],[-91.571,44.045],[-91.54,44.077],[-91.534,44.096],[-91.549,44.108],[-91.549,44.124],[-91.561,44.145],[-91.588,44.154],[-91.613,44.173],[-91.597,44.184],[-91.609,44.201],[-91.594,44.217],[-91.566,44.22],[-91.53,44.247],[-91.529,44.596],[-92.003,44.597],[-92.023,44.591],[-92.04,44.564],[-92.048,44.53],[-92.044,44.512],[-92.084,44.41]]]}},{"type":"Feature","properties":{"fips":"55013"},"geometry":{"type":"Polygon","coordinates":[[[-92.464,45.983],[-92.462,45.979],[-92.473,45.973],[-92.527,45.983],[-92.55,45.968],[-92.552,45.952],[-92.639,45.934],[-92.639,45.925],[-92.66,45.923],[-92.677,45.906],[-92.713,45.892],[-92.738,45.862],[-92.74,45.846],[-92.765,45.83],[-92.758,45.807],[-92.776,45.79],[-92.785,45.764],[-92.81,45.744],[-92.869,45.718],[-92.887,45.644],[-92.529,45.642],[-92.526,45.729],[-92.154,45.726],[-92.155,45.64],[-92.031,45.64],[-92.033,45.984],[-92.051,45.984],[-92.05,46.158],[-92.294,46.157],[-92.294,46.074],[-92.333,46.063],[-92.35,46.016],[-92.371,46.014],[-92.421,46.027],[-92.442,46.016],[-92.464,45.983]]]}},{"type":"Feature","properties":{"fips":"55015"},"geometry":{"type":"Polygon","coordinates":[[[-88.044,44.153],[-88.043,44.241],[-88.404,44.244],[-88.404,43.938],[-88.162,43.938],[-88.162,43.892],[-88.042,43.892],[-88.044,44.153]]]}},{"type":"Feature","properties":{"fips":"55017"},"geometry":{"type":"Polygon","coordinates":[[[-90.922,44.952],[-90.925,45.292],[-91.541,45.292],[-91.542,45.207],[-91.666,45.208],[-91.666,45.121],[-91.651,45.12],[-91.65,44.856],[-90.922,44.857],[-90.922,44.952]]]}},{"type":"Feature","properties":{"fips":"55019"},"geometry":{"type":"Polygon","coordinates":[[[-90.316,44.685],[-90.315,45.034],[-90.923,45.031],[-90.923,44.51],[-90.802,44.51],[-90.802,44.422],[-90.316,44.425],[-90.316,44.685]]]}},{"type":"Feature","properties":{"fips":"55021"},"geometry":{"type":"Polygon","coordinates":[[[-89.759,43.642],[-89.786,43.641],[-89.776,43.631],[-89.782,43.626],[-89.763,43.604],[-89.718,43.599],[-89.734,43.579],[-89.731,43.57],[-89.614,43.565],[-89.599,43.558],[-89.601,43.381],[-89.631,43.365],[-89.679,43.36],[-89.724,43.314],[-89.727,43.301],[-89.72,43.293],[-89.363,43.294],[-89.362,43.281],[-89.009,43.285],[-89.007,43.633],[-89.127,43.632],[-89.127,43.644],[-89.759,43.642]]]}},{"type":"Feature","properties":{"fips":"55023"},"geometry":{"type":"Polygon","coordinates":[[[-90.805,43.105],[-90.742,43.124],[-90.69,43.173],[-90.667,43.172],[-90.669,43.423],[-91.206,43.423],[-91.198,43.395],[-91.215,43.367],[-91.207,43.353],[-91.107,43.314],[-91.074,43.275],[-91.073,43.262],[-91.058,43.255],[-91.066,43.239],[-91.122,43.197],[-91.146,43.152],[-91.177,43.132],[-91.179,43.067],[-91.157,42.988],[-91.133,42.999],[-91.057,42.994],[-91.053,43.001],[-91.023,43.008],[-91.003,43.024],[-90.969,43.033],[-90.937,43.064],[-90.849,43.077],[-90.805,43.105]]]}},{"type":"Feature","properties":{"fips":"55025"},"geometry":{"type":"Polygon","coordinates":[[[-89.358,42.845],[-89.014,42.848],[-89.009,43.285],[-89.362,43.281],[-89.363,43.294],[-89.72,43.293],[-89.713,43.281],[-89.732,43.252],[-89.76,43.241],[-89.806,43.239],[-89.838,43.206],[-89.838,42.857],[-89.369,42.856],[-89.369,42.845],[-89.358,42.845]]]}},{"type":"Feature","properties":{"fips":"55027"},"geometry":{"type":"Polygon","coordinates":[[[-88.765,43.633],[-89.007,43.633],[-89.009,43.198],[-88.418,43.195],[-88.418,43.37],[-88.402,43.37],[-88.401,43.631],[-88.765,43.633]]]}},{"type":"Feature","properties":{"fips":"55029"},"geometry":{"type":"Polygon","coordinates":[[[-87.398,44.676],[-86.778,44.675],[-86.686,44.881],[-86.5,45.081],[-86.25,45.236],[-86.754,45.444],[-87.101,45.444],[-87.171,45.353],[-87.315,45.241],[-87.406,45.202],[-87.453,45.046],[-87.499,44.968],[-87.551,45.008],[-87.762,44.764],[-87.762,44.677],[-87.398,44.676]]]}},{"type":"Feature","properties":{"fips":"55031"},"geometry":{"type":"Polygon","coordinates":[[[-91.551,46.331],[-91.549,46.893],[-92.02,46.704],[-92.089,46.749],[-92.117,46.749],[-92.143,46.735],[-92.147,46.716],[-92.189,46.718],[-92.205,46.704],[-92.205,46.698],[-92.183,46.696],[-92.176,46.686],[-92.204,46.667],[-92.207,46.652],[-92.242,46.649],[-92.257,46.659],[-92.271,46.651],[-92.291,46.668],[-92.294,46.157],[-91.551,46.157],[-91.551,46.331]]]}},{"type":"Feature","properties":{"fips":"55033"},"geometry":{"type":"Polygon","coordinates":[[[-92.157,45.124],[-92.136,45.121],[-92.135,44.684],[-91.65,44.684],[-91.651,45.12],[-91.666,45.121],[-91.666,45.208],[-92.156,45.21],[-92.157,45.124]]]}},{"type":"Feature","properties":{"fips":"55035"},"geometry":{"type":"Polygon","coordinates":[[[-90.973,44.597],[-90.922,44.596],[-90.922,44.857],[-91.65,44.856],[-91.65,44.597],[-90.973,44.597]]]}},{"type":"Feature","properties":{"fips":"55037"},"geometry":{"type":"Polygon","coordinates":[[[-88.684,45.985],[-88.674,45.981],[-88.676,45.723],[-88.059,45.713],[-88.058,45.781],[-88.095,45.786],[-88.108,45.803],[-88.13,45.809],[-88.136,45.819],[-88.07,45.873],[-88.101,45.882],[-88.107,45.902],[-88.095,45.915],[-88.102,45.922],[-88.127,45.922],[-88.148,45.937],[-88.17,45.939],[-88.192,45.953],[-88.21,45.944],[-88.237,45.948],[-88.247,45.964],[-88.294,45.951],[-88.32,45.964],[-88.327,45.955],[-88.33,45.966],[-88.381,45.992],[-88.416,45.975],[-88.459,46.0],[-88.489,45.991],[-88.515,46.02],[-88.566,46.016],[-88.588,46.005],[-88.601,46.018],[-88.613,46.004],[-88.614,45.989],[-88.636,45.985],[-88.671,45.989],[-88.664,45.993],[-88.683,46.014],[-88.684,45.985]]]}},{"type":"Feature","properties":{"fips":"55039"},"geometry":{"type":"Polygon","coordinates":[[[-88.281,43.543],[-88.161,43.543],[-88.162,43.938],[-88.404,43.938],[-88.403,43.893],[-88.886,43.895],[-88.886,43.634],[-88.401,43.631],[-88.4,43.544],[-88.281,43.543]]]}},{"type":"Feature","properties":{"fips":"55041"},"geometry":{"type":"Polygon","coordinates":[[[-88.676,45.766],[-88.674,45.981],[-88.684,45.982],[-88.683,46.014],[-88.718,46.013],[-88.721,46.022],[-88.739,46.027],[-88.759,46.02],[-88.771,46.026],[-88.77,46.019],[-88.78,46.015],[-88.779,46.032],[-88.796,46.034],[-88.796,46.024],[-88.816,46.021],[-88.933,46.074],[-88.933,45.982],[-89.048,45.982],[-89.046,45.464],[-88.923,45.465],[-88.926,45.379],[-88.428,45.377],[-88.425,45.722],[-88.676,45.723],[-88.676,45.766]]]}},{"type":"Feature","properties":{"fips":"55043"},"geometry":{"type":"Polygon","coordinates":[[[-90.667,43.172],[-90.69,43.173],[-90.741,43.124],[-90.798,43.109],[-90.846,43.078],[-90.937,43.064],[-90.969,43.033],[-91.003,43.024],[-91.023,43.008],[-91.053,43.001],[-91.057,42.994],[-91.115,43.0],[-91.149,42.993],[-91.157,42.981],[-91.145,42.958],[-91.146,42.908],[-91.101,42.883],[-91.094,42.831],[-91.079,42.828],[-91.07,42.77],[-91.06,42.762],[-91.066,42.753],[-91.054,42.738],[-91.035,42.737],[-91.027,42.724],[-90.949,42.686],[-90.921,42.685],[-90.709,42.636],[-90.687,42.592],[-90.645,42.541],[-90.636,42.518],[-90.643,42.508],[-90.426,42.507],[-90.43,43.201],[-90.545,43.211],[-90.588,43.201],[-90.609,43.185],[-90.667,43.172]]]}},{"type":"Feature","properties":{"fips":"55045"},"geometry":{"type":"Polygon","coordinates":[[[-89.367,42.605],[-89.369,42.856],[-89.838,42.857],[-89.838,42.506],[-89.366,42.5],[-89.367,42.605]]]}},{"type":"Feature","properties":{"fips":"55047"},"geometry":{"type":"Polygon","coordinates":[[[-88.926,43.983],[-89.169,43.983],[-89.168,43.876],[-89.198,43.877],[-89.198,43.813],[-89.189,43.805],[-89.168,43.81],[-89.168,43.766],[-89.243,43.763],[-89.245,43.643],[-89.127,43.644],[-89.127,43.632],[-88.886,43.634],[-88.886,43.983],[-88.926,43.983]]]}},{"type":"Feature","properties":{"fips":"55049"},"geometry":{"type":"Polygon","coordinates":[[[-89.864,42.814],[-89.838,42.814],[-89.838,43.206],[-89.905,43.188],[-90.0,43.195],[-90.049,43.166],[-90.059,43.145],[-90.088,43.162],[-90.159,43.167],[-90.183,43.157],[-90.259,43.197],[-90.284,43.195],[-90.298,43.208],[-90.43,43.201],[-90.427,42.813],[-89.864,42.814]]]}},{"type":"Feature","properties":{"fips":"55051"},"geometry":{"type":"Polygon","coordinates":[[[-90.188,46.458],[-90.194,46.463],[-90.189,46.469],[-90.204,46.478],[-90.217,46.502],[-90.231,46.502],[-90.231,46.51],[-90.273,46.505],[-90.277,46.524],[-90.317,46.517],[-90.309,46.537],[-90.337,46.554],[-90.351,46.54],[-90.393,46.532],[-90.418,46.566],[-90.27,46.798],[-90.449,46.797],[-90.55,46.584],[-90.552,46.241],[-90.426,46.24],[-90.426,46.154],[-90.303,46.155],[-90.302,45.981],[-89.929,45.982],[-89.929,46.3],[-90.121,46.337],[-90.119,46.359],[-90.158,46.409],[-90.168,46.442],[-90.178,46.44],[-90.178,46.457],[-90.188,46.458]]]}},{"type":"Feature","properties":{"fips":"55053"},"geometry":{"type":"Polygon","coordinates":[[[-90.318,44.292],[-90.316,44.425],[-90.802,44.422],[-90.802,44.51],[-90.923,44.51],[-90.922,44.596],[-91.166,44.597],[-91.166,44.251],[-91.154,44.248],[-91.152,44.071],[-90.973,44.071],[-90.974,44.117],[-90.967,44.12],[-90.978,44.129],[-90.947,44.147],[-90.926,44.146],[-90.905,44.158],[-90.436,44.161],[-90.313,44.155],[-90.318,44.292]]]}},{"type":"Feature","properties":{"fips":"55055"},"geometry":{"type":"Polygon","coordinates":[[[-88.832,43.198],[-89.009,43.198],[-89.014,42.848],[-88.542,42.843],[-88.536,43.196],[-88.832,43.198]]]}},{"type":"Feature","properties":{"fips":"55057"},"geometry":{"type":"Polygon","coordinates":[[[-89.958,43.862],[-89.963,43.883],[-89.984,43.911],[-89.951,43.927],[-89.964,43.984],[-89.974,43.996],[-90.006,44.008],[-89.998,44.023],[-90.018,44.046],[-90.026,44.09],[-90.004,44.103],[-90.009,44.121],[-89.976,44.124],[-89.985,44.129],[-89.974,44.135],[-89.97,44.167],[-89.942,44.163],[-89.929,44.15],[-89.923,44.155],[-89.924,44.177],[-89.903,44.179],[-89.904,44.191],[-89.927,44.194],[-89.905,44.202],[-89.925,44.214],[-89.908,44.221],[-89.908,44.229],[-89.898,44.228],[-89.903,44.249],[-90.313,44.249],[-90.312,43.641],[-89.785,43.641],[-89.787,43.667],[-89.808,43.677],[-89.823,43.698],[-89.851,43.769],[-89.913,43.818],[-89.922,43.838],[-89.958,43.862]]]}},{"type":"Feature","properties":{"fips":"55059"},"geometry":{"type":"Polygon","coordinates":[[[-87.806,42.668],[-88.188,42.67],[-88.188,42.611],[-88.306,42.611],[-88.305,42.495],[-87.02,42.494],[-87.044,42.664],[-87.806,42.668]]]}},{"type":"Feature","properties":{"fips":"55061"},"geometry":{"type":"Polygon","coordinates":[[[-87.644,44.328],[-86.923,44.329],[-86.778,44.675],[-87.758,44.677],[-87.766,44.327],[-87.644,44.328]]]}},{"type":"Feature","properties":{"fips":"55063"},"geometry":{"type":"Polygon","coordinates":[[[-91.212,44.067],[-91.221,44.053],[-91.247,44.058],[-91.266,44.072],[-91.284,44.06],[-91.316,44.061],[-91.332,44.044],[-91.328,44.037],[-91.34,44.035],[-91.345,44.016],[-91.322,43.984],[-91.425,43.984],[-91.367,43.937],[-91.357,43.917],[-91.321,43.888],[-91.311,43.867],[-91.278,43.838],[-91.262,43.792],[-91.244,43.775],[-91.258,43.726],[-90.911,43.725],[-90.913,44.072],[-91.152,44.071],[-91.152,44.08],[-91.188,44.091],[-91.201,44.087],[-91.2,44.076],[-91.212,44.067]]]}},{"type":"Feature","properties":{"fips":"55065"},"geometry":{"type":"Polygon","coordinates":[[[-90.29,42.814],[-90.427,42.813],[-90.426,42.507],[-89.838,42.506],[-89.838,42.814],[-90.29,42.814]]]}},{"type":"Feature","properties":{"fips":"55067"},"geometry":{"type":"Polygon","coordinates":[[[-88.807,45.118],[-88.641,45.117],[-88.638,45.205],[-88.68,45.205],[-88.678,45.379],[-88.926,45.379],[-88.923,45.465],[-89.425,45.467],[-89.426,45.119],[-89.224,45.119],[-89.224,45.029],[-88.982,45.029],[-88.982,45.118],[-88.807,45.118]]]}},{"type":"Feature","properties":{"fips":"55069"},"geometry":{"type":"Polygon","coordinates":[[[-89.672,45.556],[-90.043,45.555],[-90.044,45.12],[-89.426,45.119],[-89.428,45.555],[-89.672,45.556]]]}},{"type":"Feature","properties":{"fips":"55071"},"geometry":{"type":"Polygon","coordinates":[[[-87.732,43.892],[-87.075,43.895],[-87.013,44.132],[-86.923,44.329],[-87.888,44.328],[-87.888,44.24],[-88.043,44.241],[-88.042,43.892],[-87.732,43.892]]]}},{"type":"Feature","properties":{"fips":"55073"},"geometry":{"type":"Polygon","coordinates":[[[-89.727,45.12],[-90.198,45.121],[-90.198,45.034],[-90.315,45.034],[-90.316,44.685],[-89.224,44.681],[-89.224,45.119],[-89.727,45.12]]]}},{"type":"Feature","properties":{"fips":"55075"},"geometry":{"type":"Polygon","coordinates":[[[-87.973,45.766],[-87.99,45.772],[-87.981,45.777],[-87.991,45.795],[-88.058,45.781],[-88.059,45.713],[-88.425,45.722],[-88.428,45.377],[-88.306,45.375],[-88.309,45.202],[-88.186,45.198],[-88.189,45.112],[-88.119,45.11],[-88.121,45.024],[-87.943,45.02],[-87.944,44.993],[-87.76,44.991],[-87.762,44.764],[-87.551,45.008],[-87.499,44.968],[-87.453,45.046],[-87.443,45.076],[-87.66,45.108],[-87.684,45.144],[-87.736,45.172],[-87.742,45.198],[-87.726,45.209],[-87.725,45.232],[-87.711,45.24],[-87.71,45.259],[-87.687,45.298],[-87.648,45.34],[-87.657,45.369],[-87.675,45.382],[-87.7,45.388],[-87.754,45.349],[-87.833,45.352],[-87.85,45.34],[-87.872,45.367],[-87.87,45.356],[-87.888,45.354],[-87.871,45.372],[-87.875,45.379],[-87.849,45.404],[-87.862,45.434],[-87.813,45.464],[-87.793,45.5],[-87.802,45.513],[-87.803,45.538],[-87.834,45.562],[-87.829,45.569],[-87.792,45.563],[-87.787,45.583],[-87.777,45.588],[-87.781,45.615],[-87.796,45.619],[-87.825,45.653],[-87.824,45.662],[-87.782,45.673],[-87.781,45.68],[-87.809,45.7],[-87.81,45.71],[-87.855,45.727],[-87.862,45.745],[-87.876,45.754],[-87.959,45.757],[-87.973,45.766]]]}},{"type":"Feature","properties":{"fips":"55077"},"geometry":{"type":"Polygon","coordinates":[[[-89.245,43.76],[-89.236,43.768],[-89.168,43.766],[-89.168,43.81],[-89.189,43.805],[-89.198,43.813],[-89.198,43.877],[-89.168,43.876],[-89.169,43.983],[-89.598,43.982],[-89.6,43.643],[-89.245,43.643],[-89.245,43.76]]]}},{"type":"Feature","properties":{"fips":"55078"},"geometry":{"type":"Polygon","coordinates":[[[-88.982,45.118],[-88.981,44.943],[-88.736,44.943],[-88.736,44.856],[-88.489,44.855],[-88.484,45.117],[-88.982,45.118]]]}},{"type":"Feature","properties":{"fips":"55079"},"geometry":{"type":"Polygon","coordinates":[[[-87.959,43.192],[-88.063,43.192],[-88.07,42.843],[-87.069,42.842],[-87.119,43.191],[-87.959,43.192]]]}},{"type":"Feature","properties":{"fips":"55081"},"geometry":{"type":"Polygon","coordinates":[[[-90.6,43.73],[-90.312,43.731],[-90.313,44.155],[-90.436,44.161],[-90.905,44.158],[-90.926,44.146],[-90.947,44.147],[-90.977,44.13],[-90.967,44.12],[-90.974,44.117],[-90.973,44.071],[-90.913,44.072],[-90.911,43.725],[-90.6,43.73]]]}},{"type":"Feature","properties":{"fips":"55083"},"geometry":{"type":"Polygon","coordinates":[[[-88.131,44.677],[-87.762,44.677],[-87.76,44.991],[-87.944,44.993],[-87.943,45.02],[-88.121,45.024],[-88.119,45.11],[-88.189,45.112],[-88.186,45.198],[-88.309,45.202],[-88.306,45.375],[-88.678,45.379],[-88.68,45.205],[-88.638,45.205],[-88.641,45.117],[-88.484,45.117],[-88.489,44.855],[-88.248,44.853],[-88.252,44.767],[-88.243,44.68],[-88.231,44.68],[-88.231,44.672],[-88.131,44.677]]]}},{"type":"Feature","properties":{"fips":"55085"},"geometry":{"type":"Polygon","coordinates":[[[-89.425,45.898],[-90.043,45.897],[-90.043,45.555],[-89.428,45.555],[-89.425,45.467],[-89.046,45.464],[-89.048,45.895],[-89.178,45.899],[-89.175,45.857],[-89.301,45.861],[-89.3,45.901],[-89.425,45.898]]]}},{"type":"Feature","properties":{"fips":"55087"},"geometry":{"type":"Polygon","coordinates":[[[-88.367,44.588],[-88.737,44.591],[-88.74,44.243],[-88.193,44.242],[-88.19,44.587],[-88.367,44.588]]]}},{"type":"Feature","properties":{"fips":"55089"},"geometry":{"type":"Polygon","coordinates":[[[-87.791,43.543],[-88.041,43.542],[-88.04,43.368],[-88.062,43.367],[-88.063,43.192],[-87.119,43.191],[-87.147,43.38],[-87.135,43.541],[-87.791,43.543]]]}},{"type":"Feature","properties":{"fips":"55091"},"geometry":{"type":"Polygon","coordinates":[[[-91.772,44.597],[-91.65,44.597],[-91.65,44.684],[-92.135,44.684],[-92.135,44.54],[-92.316,44.541],[-92.291,44.485],[-92.231,44.444],[-92.084,44.407],[-92.081,44.431],[-92.059,44.466],[-92.044,44.512],[-92.048,44.53],[-92.04,44.564],[-92.023,44.591],[-92.003,44.597],[-91.772,44.597]]]}},{"type":"Feature","properties":{"fips":"55093"},"geometry":{"type":"Polygon","coordinates":[[[-92.375,44.862],[-92.77,44.862],[-92.766,44.836],[-92.786,44.792],[-92.804,44.771],[-92.808,44.752],[-92.732,44.714],[-92.661,44.661],[-92.632,44.649],[-92.62,44.634],[-92.622,44.615],[-92.602,44.612],[-92.586,44.6],[-92.569,44.603],[-92.547,44.567],[-92.519,44.575],[-92.439,44.553],[-92.416,44.561],[-92.357,44.558],[-92.316,44.541],[-92.135,44.54],[-92.136,44.858],[-92.375,44.862]]]}},{"type":"Feature","properties":{"fips":"55095"},"geometry":{"type":"Polygon","coordinates":[[[-92.155,45.64],[-92.154,45.726],[-92.526,45.729],[-92.529,45.642],[-92.887,45.644],[-92.884,45.575],[-92.823,45.561],[-92.77,45.567],[-92.726,45.541],[-92.727,45.514],[-92.68,45.464],[-92.654,45.455],[-92.647,45.442],[-92.65,45.399],[-92.703,45.358],[-92.699,45.336],[-92.709,45.323],[-92.762,45.288],[-92.752,45.266],[-92.76,45.252],[-92.752,45.219],[-92.758,45.21],[-92.156,45.21],[-92.155,45.64]]]}},{"type":"Feature","properties":{"fips":"55097"},"geometry":{"type":"Polygon","coordinates":[[[-89.224,44.592],[-89.224,44.681],[-89.845,44.685],[-89.845,44.512],[-89.727,44.511],[-89.725,44.248],[-89.225,44.243],[-89.224,44.592]]]}},{"type":"Feature","properties":{"fips":"55099"},"geometry":{"type":"Polygon","coordinates":[[[-90.291,45.381],[-90.042,45.382],[-90.044,45.982],[-90.677,45.982],[-90.679,45.378],[-90.291,45.381]]]}},{"type":"Feature","properties":{"fips":"55101"},"geometry":{"type":"Polygon","coordinates":[[[-88.071,42.67],[-87.044,42.664],[-87.069,42.842],[-88.306,42.842],[-88.306,42.611],[-88.188,42.611],[-88.188,42.67],[-88.071,42.67]]]}},{"type":"Feature","properties":{"fips":"55103"},"geometry":{"type":"Polygon","coordinates":[[[-90.431,43.554],[-90.672,43.553],[-90.667,43.172],[-90.609,43.185],[-90.588,43.201],[-90.545,43.211],[-90.439,43.2],[-90.337,43.21],[-90.295,43.208],[-90.28,43.194],[-90.26,43.198],[-90.194,43.164],[-90.192,43.555],[-90.431,43.554]]]}},{"type":"Feature","properties":{"fips":"55105"},"geometry":{"type":"Polygon","coordinates":[[[-89.014,42.848],[-89.369,42.845],[-89.366,42.5],[-88.777,42.492],[-88.777,42.843],[-89.014,42.848]]]}},{"type":"Feature","properties":{"fips":"55107"},"geometry":{"type":"Polygon","coordinates":[[[-91.049,45.292],[-90.925,45.292],[-90.925,45.379],[-90.679,45.378],[-90.679,45.638],[-91.54,45.638],[-91.541,45.292],[-91.049,45.292]]]}},{"type":"Feature","properties":{"fips":"55109"},"geometry":{"type":"Polygon","coordinates":[[[-92.157,45.122],[-92.156,45.21],[-92.758,45.21],[-92.767,45.185],[-92.752,45.174],[-92.752,45.142],[-92.74,45.116],[-92.793,45.079],[-92.803,45.063],[-92.762,45.024],[-92.771,45.001],[-92.769,44.972],[-92.755,44.956],[-92.751,44.937],[-92.759,44.909],[-92.775,44.898],[-92.763,44.874],[-92.77,44.862],[-92.136,44.858],[-92.136,45.121],[-92.157,45.122]]]}},{"type":"Feature","properties":{"fips":"55111"},"geometry":{"type":"Polygon","coordinates":[[[-89.838,43.206],[-89.806,43.239],[-89.76,43.241],[-89.731,43.252],[-89.713,43.282],[-89.727,43.3],[-89.724,43.314],[-89.679,43.36],[-89.631,43.365],[-89.601,43.381],[-89.599,43.558],[-89.614,43.565],[-89.731,43.57],[-89.734,43.579],[-89.718,43.598],[-89.767,43.606],[-89.786,43.641],[-90.312,43.641],[-90.311,43.554],[-90.192,43.555],[-90.194,43.164],[-90.182,43.157],[-90.159,43.167],[-90.086,43.162],[-90.059,43.145],[-90.049,43.166],[-90.0,43.195],[-89.905,43.188],[-89.838,43.206]]]}},{"type":"Feature","properties":{"fips":"55113"},"geometry":{"type":"Polygon","coordinates":[[[-90.678,45.811],[-90.677,45.982],[-90.925,45.981],[-90.925,46.155],[-91.551,46.157],[-91.552,45.983],[-91.542,45.981],[-91.54,45.638],[-90.679,45.638],[-90.678,45.811]]]}},{"type":"Feature","properties":{"fips":"55115"},"geometry":{"type":"Polygon","coordinates":[[[-88.252,44.767],[-88.248,44.853],[-88.736,44.856],[-88.736,44.943],[-88.981,44.943],[-88.982,45.029],[-89.224,45.029],[-89.224,44.681],[-88.605,44.678],[-88.606,44.591],[-88.245,44.585],[-88.243,44.661],[-88.252,44.66],[-88.253,44.68],[-88.243,44.68],[-88.243,44.687],[-88.252,44.767]]]}},{"type":"Feature","properties":{"fips":"55117"},"geometry":{"type":"Polygon","coordinates":[[[-87.801,43.892],[-88.162,43.892],[-88.161,43.543],[-87.135,43.541],[-87.125,43.67],[-87.075,43.895],[-87.801,43.892]]]}},{"type":"Feature","properties":{"fips":"55119"},"geometry":{"type":"Polygon","coordinates":[[[-90.315,45.034],[-90.198,45.034],[-90.198,45.121],[-90.044,45.12],[-90.042,45.382],[-90.925,45.379],[-90.923,45.031],[-90.315,45.034]]]}},{"type":"Feature","properties":{"fips":"55121"},"geometry":{"type":"Polygon","coordinates":[[[-91.401,43.984],[-91.322,43.984],[-91.345,44.017],[-91.34,44.035],[-91.328,44.037],[-91.332,44.044],[-91.307,44.065],[-91.284,44.06],[-91.266,44.072],[-91.247,44.058],[-91.221,44.053],[-91.2,44.076],[-91.199,44.087],[-91.169,44.088],[-91.152,44.08],[-91.154,44.248],[-91.166,44.251],[-91.166,44.597],[-91.529,44.596],[-91.53,44.247],[-91.557,44.224],[-91.601,44.211],[-91.609,44.201],[-91.597,44.184],[-91.612,44.169],[-91.561,44.145],[-91.549,44.124],[-91.549,44.108],[-91.534,44.096],[-91.54,44.077],[-91.571,44.045],[-91.559,44.025],[-91.464,44.009],[-91.434,43.998],[-91.425,43.984],[-91.401,43.984]]]}},{"type":"Feature","properties":{"fips":"55123"},"geometry":{"type":"Polygon","coordinates":[[[-90.672,43.553],[-90.311,43.554],[-90.312,43.731],[-91.258,43.726],[-91.268,43.71],[-91.273,43.667],[-91.262,43.642],[-91.269,43.615],[-91.232,43.582],[-91.244,43.546],[-91.217,43.512],[-91.215,43.485],[-91.233,43.455],[-91.206,43.423],[-90.669,43.423],[-90.672,43.553]]]}},{"type":"Feature","properties":{"fips":"55125"},"geometry":{"type":"Polygon","coordinates":[[[-89.555,46.228],[-89.929,46.3],[-89.929,45.982],[-90.044,45.982],[-90.043,45.897],[-89.3,45.901],[-89.301,45.861],[-89.175,45.857],[-89.178,45.899],[-89.048,45.895],[-89.048,45.982],[-88.933,45.982],[-88.933,46.074],[-89.092,46.138],[-89.555,46.228]]]}},{"type":"Feature","properties":{"fips":"55127"},"geometry":{"type":"Polygon","coordinates":[[[-88.312,42.495],[-88.305,42.495],[-88.306,42.842],[-88.777,42.843],[-88.777,42.492],[-88.312,42.495]]]}},{"type":"Feature","properties":{"fips":"55129"},"geometry":{"type":"Polygon","coordinates":[[[-91.798,46.158],[-92.05,46.158],[-92.051,45.984],[-92.033,45.984],[-92.031,45.64],[-91.54,45.638],[-91.542,45.981],[-91.552,45.983],[-91.551,46.157],[-91.798,46.158]]]}},{"type":"Feature","properties":{"fips":"55131"},"geometry":{"type":"Polygon","coordinates":[[[-88.161,43.543],[-88.4,43.544],[-88.402,43.37],[-88.418,43.37],[-88.418,43.195],[-88.063,43.192],[-88.062,43.367],[-88.04,43.368],[-88.041,43.542],[-88.161,43.543]]]}},{"type":"Feature","properties":{"fips":"55133"},"geometry":{"type":"Polygon","coordinates":[[[-88.067,43.016],[-88.063,43.192],[-88.536,43.196],[-88.542,42.843],[-88.07,42.843],[-88.067,43.016]]]}},{"type":"Feature","properties":{"fips":"55135"},"geometry":{"type":"Polygon","coordinates":[[[-88.737,44.591],[-88.606,44.591],[-88.605,44.678],[-89.224,44.681],[-89.225,44.243],[-88.74,44.243],[-88.737,44.591]]]}},{"type":"Feature","properties":{"fips":"55137"},"geometry":{"type":"Polygon","coordinates":[[[-89.247,43.983],[-88.886,43.983],[-88.887,44.243],[-89.598,44.246],[-89.598,43.982],[-89.247,43.983]]]}},{"type":"Feature","properties":{"fips":"55139"},"geometry":{"type":"Polygon","coordinates":[[[-88.404,44.128],[-88.404,44.244],[-88.887,44.243],[-88.886,43.895],[-88.403,43.893],[-88.404,44.128]]]}},{"type":"Feature","properties":{"fips":"55141"},"geometry":{"type":"Polygon","coordinates":[[[-89.964,44.685],[-90.316,44.685],[-90.318,44.249],[-89.725,44.248],[-89.727,44.511],[-89.845,44.512],[-89.845,44.685],[-89.964,44.685]]]}}]}
